local_number,local_name,city,state,zip,phone,email,website,leadership_name,leadership_title,divisions,full_address,latitude,longitude,scraped_at
2,Teamsters LU No 2,Butte,MT,59702,(406) 494-2747,erin.foley@teamsterslocal2.org,https://www.teamsterslocal2.org,Erin Foley,Secretary-Treasurer,"Brewery, Bakery, & Soft Drink, Building Material and Construction Trade Division, Convention, Trade Show & Casino Division, Food Processing Division, Freight Division, Package Division, Public Services and Health Care Division, Solid Waste and Recycling Division, Tankhaul Division, Warehouse Division","Post Office Box 3745 Butte MT , 59702",45.905345,-112.637705,2026-02-03T08:59:28.293437
3,Teamsters LU No 3,Quincy,MA,02169,(617) 328-7705,,,Stephen T. Sullivan,President,Graphics Communications,"1073 Hancock St Suite 303 Quincy MA , 02169",42.255584,-71.006942,2026-02-03T08:59:28.293453
5,Teamsters LU No 5,Baton Rouge,LA,70806,(225) 924-3886,teamsterlocalun@cox-internet.com,,Jerry Barnum Jr,Secretary-Treasurer,"Building Material and Construction Trade Division, Convention, Trade Show & Casino Division, Freight Division, Industrial Trades Division, Passenger Transportation, Warehouse Division","1772 Dallas Drive Baton Rouge LA , 70806",30.465996,-91.11004,2026-02-03T08:59:28.293459
6,Teamsters LU No 6,St. Louis,MO,63118,(314) 772-2033,teamsters6@sbcglobal.net,https://www.teamsterslocal6.com,Joe Segrest,Secretary-Treasurer,"Brewery, Bakery, & Soft Drink, Food Processing Division","P.O. Box 1889 2920 Meramec Street St. Louis MO , 63118",38.588193,-90.221442,2026-02-03T08:59:28.293463
8,Teamsters LU No 8,State College,PA,16803,(814) 548-1429,,https://www.ibtlocal8.org,Jonathan Light,President,Public Services and Health Care Division,"2225 High Tech Road State College PA , 16803",40.856825,-77.857679,2026-02-03T08:59:28.293466
11,Teamsters LU No 11,North Haledon,NJ,07508,(973) 636-0093,,,Michael Curcio,President,"Brewery, Bakery, & Soft Drink, Building Material and Construction Trade Division, Food Processing Division, Freight Division, Industrial Trades Division, Public Services and Health Care Division, Tankhaul Division, Warehouse Division","810 Belmont Ave Suite 200 North Haledon NJ , 07508",40.950579,-74.187973,2026-02-03T08:59:28.293469
14,Teamsters LU No 14,Las Vegas,NV,89117,(702) 384-7841,info1@teamsters14.com,https://www.teamsters14.com,Jason Gateley,Secretary-Treasurer,"Brewery, Bakery, & Soft Drink, Convention, Trade Show & Casino Division, Food Processing Division, Industrial Trades Division, Public Services and Health Care Division, Tankhaul Division, Warehouse Division","8951 West Sahara Ave #100 Las Vegas NV , 89117",36.143672,-115.292156,2026-02-03T08:59:28.293472
17,Teamsters LU No 17,Denver,CO,80221,(303) 433-6496,,https://www.teamsterslocal17.org,Duane C. Grove,Secretary-Treasurer,"Food Processing Division, Freight Division, Package Division, Public Services and Health Care Division","7010 Broadway, Ste200 Denver CO , 80221",39.824644,-104.984202,2026-02-03T08:59:28.293475
19,Teamsters LU No 19,Houston,TX,77060,(713) 672-8155,,https://www.teamsterslocal19.org,David Watford,President,"Airline Division, Freight Division, Industrial Trades Division, Public Services and Health Care Division","151 Northpoint Drive Houston TX , 77060",29.938482,-95.405119,2026-02-03T08:59:28.293478
20,Teamsters LU No 20,Toledo,OH,43609,(419) 243-8800,m.schmiehausen@ibt20.com,https://www.teamsters20.com,Mark Schmiehausen,President,"Brewery, Bakery, & Soft Drink, Building Material and Construction Trade Division, Convention, Trade Show & Casino Division, Food Processing Division, Freight Division, Industrial Trades Division, Package Division, Passenger Transportation, Public Services and Health Care Division, Solid Waste and Recycling Division, Tankhaul Division, Warehouse Division","435 S Hawley Street Toledo OH , 43609",41.631902,-83.567202,2026-02-03T08:59:28.293481
22,Teamsters LU No 22,Collinsville,VA,24078,(276) 647-3991,teamsterslocal22@mail.com,,Steven Rossman,Secretary-Treasurer,Package Division,"97 Belmont St, PO 368 Collinsville VA , 24078",36.712106,-79.909327,2026-02-03T08:59:28.293487
24,Teamsters LU No 24,Akron,OH,44333,(234) 888-0848,teamsterslocal24@sbcglobal.net,https://www.teamsterslocal24.org,Travis W. Bornstein,President,"Brewery, Bakery, & Soft Drink, Freight Division, Industrial Trades Division, Package Division, Public Services and Health Care Division, Tankhaul Division","3070 West Market St., #201 Akron OH , 44333",41.129082,-81.612235,2026-02-03T08:59:28.293491
25,Teamsters LU No 25,Boston,MA,02129,(617) 241-8825,,https://www.teamsterslocal25.com,Thomas G. Mari,President,"Airline Division, Brewery, Bakery, & Soft Drink, Building Material and Construction Trade Division, Convention, Trade Show & Casino Division, Express Division, Freight Division, Industrial Trades Division, Motion Picture and Theratical Trade Division, Package Division, Passenger Transportation, Public Services and Health Care Division, Solid Waste and Recycling Division, Tankhaul Division, Warehouse Division","544 Main Street Boston MA , 02129",42.383707,-71.072801,2026-02-03T08:59:28.293495
26,Teamsters LU No 26,Champaign,IL,61820,(217) 352-2236,pgleason@teamsters26.org,https://www.teamsters26.org,Patrick A. Gleason,President,"Brewery, Bakery, & Soft Drink, Building Material and Construction Trade Division, Food Processing Division, Freight Division, Passenger Transportation, Public Services and Health Care Division, Solid Waste and Recycling Division, Tankhaul Division, Warehouse Division","908 N. Neil Street Champaign IL , 61820",40.124619,-88.243082,2026-02-03T08:59:28.293498
29,Teamsters LU No 29,Verona,VA,24482,(540) 248-1200,,https://www.teamsters29.org,Jeffrey N. Vaughan,Secretary-Treasurer,"Food Processing Division, Freight Division, Industrial Trades Division, Package Division, Warehouse Division","12 Cedar Park Lane Verona VA , 24482",38.187396,-78.994169,2026-02-03T08:59:28.293501
30,Teamsters LU No 30,Jeannette,PA,15644,(724) 527-1523,teamsters30@verizon.net,https://teamsterslocal30.com/,Eugene P. Bosetti,President,"Brewery, Bakery, & Soft Drink, Building Material and Construction Trade Division, Freight Division, Industrial Trades Division, Package Division, Passenger Transportation, Public Services and Health Care Division, Warehouse Division","720 Lowry Avenue Jeannette PA , 15644",40.319048,-79.616615,2026-02-03T08:59:28.293504
31,Teamsters LU No 31,Delta BC,CN,V3M 5S1,(604) 540-6009,teamsters31@klondiker.com,https://www.teamsters31.ca,Stan Hennessy,President,"Brewery, Bakery, & Soft Drink, Building Material and Construction Trade Division, Convention, Trade Show & Casino Division, Freight Division, Industrial Trades Division, Package Division, Passenger Transportation, Public Services and Health Care Division, Tankhaul Division, Warehouse Division","1 Grosvenor Square Delta BC CN , V3M 5S1",49.181619,-122.929547,2026-02-03T08:59:28.293507
35,Teamsters LU No 35,Trenton,NJ,08691,(609) 585-4400,president@teamsters35.com,,"Roger F. Grover, Jr.",President,"Airline Division, Building Material and Construction Trade Division, Freight Division, Industrial Trades Division, Passenger Transportation, Public Services and Health Care Division, Warehouse Division","620 U.S. Route 130 Trenton NJ , 08691",40.190391,-74.65189,2026-02-03T08:59:28.293510
38,Teamsters LU No 38,Everett,WA,98201,(425) 252-3800,teamsters38@teamsters38.org,https://www.teamsters38.org,Samantha W. Kantak,Secretary-Treasurer,"Brewery, Bakery, & Soft Drink, Building Material and Construction Trade Division, Freight Division, Package Division, Public Services and Health Care Division, Solid Waste and Recycling Division, Tankhaul Division, Warehouse Division","2601 Everett, Bx 1548 Everett WA , 98201",47.982118,-122.195406,2026-02-03T08:59:28.293512
41,Teamsters LU No 41,Kansas City,MO,64153,(816) 924-2000,teamsters41@aol.com,https://www.teamsters41.org,Joseph Monslow,President,"Brewery, Bakery, & Soft Drink, Building Material and Construction Trade Division, Convention, Trade Show & Casino Division, Food Processing Division, Freight Division, Industrial Trades Division, Package Division, Passenger Transportation, Public Services and Health Care Division, Tankhaul Division, Warehouse Division","10525 N. Ambassador Drive Suite 200 Kansas City MO , 64153",39.043016,-94.52465,2026-02-03T08:59:28.293515
42,Teamsters LU No 42,Lynnfield,MA,01940,(781) 598-2360,teamsterslocal42@aol.com,https://www.teamsterslocal42.com,Joseph Benevento,President,"Building Material and Construction Trade Division, Industrial Trades Division, Package Division, Passenger Transportation, Public Services and Health Care Division, Tankhaul Division, Warehouse Division","230 Broadway, Unit 103 Lynnfield MA , 01940",42.509716,-71.012268,2026-02-03T08:59:28.293519
50,Teamsters LU No 50,Swansea,IL,62226,(618) 233-0313,info@teamsters50.com,https://teamsters50.com/,Pat Nichols,President,"Brewery, Bakery, & Soft Drink, Building Material and Construction Trade Division, Food Processing Division, Freight Division, Industrial Trades Division, Package Division, Passenger Transportation, Public Services and Health Care Division, Solid Waste and Recycling Division","1609 North Illinois Street Swansea IL , 62226",38.532866,-89.983155,2026-02-03T08:59:28.293523
52,Teamsters LU No 52,Valley View,OH,44125,(440) 243-2927,dddl52@ameritech.net,https://www.teamsterslocal52.com,David D. Dudas,Secretary-Treasurer,"Brewery, Bakery, & Soft Drink, Food Processing Division, Industrial Trades Division, Public Services and Health Care Division","8001 Sweet Valley Drive Suite 3 Valley View OH , 44125",41.396894,-81.625231,2026-02-03T08:59:28.293526
58,Teamsters LU No 58,Vancouver,WA,98661,(360) 693-5841,info@teamsters58.com,https://teamsters58.org,"Walter LaChapelle, III",Secretary-Treasurer,"Brewery, Bakery, & Soft Drink, Building Material and Construction Trade Division, Convention, Trade Show & Casino Division, Food Processing Division, Freight Division, Industrial Trades Division, Package Division, Passenger Transportation, Public Services and Health Care Division, Solid Waste and Recycling Division, Tankhaul Division, Warehouse Division","2212 NE Andresen Road Vancouver WA , 98661",45.638839,-122.601123,2026-02-03T08:59:28.293529
59,Teamsters LU No 59,New Bedford,MA,02740,(508) 993-1505,teamsters.nb@verizon.net,https://www.teamsters59.org,George F. Belanger,Secretary-Treasurer,"Brewery, Bakery, & Soft Drink, Building Material and Construction Trade Division, Freight Division, Industrial Trades Division, Package Division, Public Services and Health Care Division, Solid Waste and Recycling Division, Tankhaul Division, Warehouse Division","27 South Sixth Street New Bedford MA , 02740",41.632116,-70.927514,2026-02-03T08:59:28.293532
61,Teamsters LU No 61,Asheville,NC,28806,(828) 665-2834,brianball@teamsters61.com,https://www.teamster61.org,Brian Ball,Secretary-Treasurer,"Brewery, Bakery, & Soft Drink, Food Processing Division, Freight Division, Industrial Trades Division, Motion Picture and Theratical Trade Division, Package Division, Warehouse Division","45 Sardis Road Asheville NC , 28806",35.52834,-82.611744,2026-02-03T08:59:28.293535
63,Teamsters LU No 63,Rialto,CA,92376,(909) 877-2452,,https://www.teamsters63.org,Randy Cammack,Secretary-Treasurer,"Brewery, Bakery, & Soft Drink, Building Material and Construction Trade Division, Food Processing Division, Freight Division, Industrial Trades Division, Package Division, Passenger Transportation, Public Services and Health Care Division, Warehouse Division","379 West Valley Boulevard Rialto CA , 92376",34.069645,-117.376444,2026-02-03T08:59:28.293538
70,Teamsters LU No 70,Oakland,CA,94621,(510) 569-9317,ibt70@teamsterslocal70.org,https://www.teamsterslocal70.org,Felix Martinez,Secretary-Treasurer,"Brewery, Bakery, & Soft Drink, Building Material and Construction Trade Division, Express Division, Food Processing Division, Freight Division, Motion Picture and Theratical Trade Division, Package Division, Passenger Transportation, Public Services and Health Care Division, Solid Waste and Recycling Division, Tankhaul Division, Warehouse Division","400 Roland Way Oakland CA , 94621",37.740941,-122.204294,2026-02-03T08:59:28.293541
71,Teamsters LU No 71,Charlotte,NC,28214,(704) 596-2475,local71@teamsterslocal71.com,https://www.teamsterslocal71.com,Willie Ford,President,"Building Material and Construction Trade Division, Food Processing Division, Freight Division, Motion Picture and Theratical Trade Division, Package Division, Public Services and Health Care Division, Warehouse Division","2529 Beltway Blvd Charlotte NC , 28214",35.258457,-80.984566,2026-02-03T08:59:28.293545
77,Teamsters LU No 77,Fort Washington,PA,19034,(215) 542-7757,office@teamsters77.org,https://www.teamsters77.org,"Robert J. Miller, Jr.",Secretary-Treasurer,Public Services and Health Care Division,"540 Pennsylvania Ave #315 Fort Washington PA , 19034",40.131814,-75.203351,2026-02-03T08:59:28.293547
79,Teamsters LU No 79,Tampa,FL,33619-1033,(813) 621-1391,ibtlocal79@teamsters79.com,https://www.teamsterslocal79.org,Brian A. Rothman,President,"Brewery, Bakery, & Soft Drink, Food Processing Division, Freight Division, Industrial Trades Division, Package Division, Public Services and Health Care Division","5818 E. MLK Jr. Blvd Tampa FL , 33619-1033",27.982099,-82.39042,2026-02-03T08:59:28.293549
81,Teamsters LU No 81,Portland,OR,97230,(503) 251-2381,tom@teamsters81.org,https://www.teamsters81.org,Thomas G. Strickland,Secretary-Treasurer,"Building Material and Construction Trade Division, Freight Division, Industrial Trades Division, Package Division, Tankhaul Division","1874 NE 162nd Avenue Portland OR , 97230",45.536089,-122.492167,2026-02-03T08:59:28.293552
87,Teamsters LU No 87,Bakersfield,CA,93301,(661) 327-8594,teamsters87@sbcglobal.net,https://www.teamsterslocal87.org,John Moralez,Secretary-Treasurer,"Brewery, Bakery, & Soft Drink, Building Material and Construction Trade Division, Food Processing Division, Freight Division, Industrial Trades Division, Package Division, Passenger Transportation, Public Services and Health Care Division, Solid Waste and Recycling Division, Warehouse Division","2531 'G' Street Bakersfield CA , 93301",35.382541,-119.02266,2026-02-03T08:59:28.293554
89,Teamsters LU No 89,Louisville,KY,40215,(502) 368-5885,info@teamsters89.com,https://www.teamsters89.com,Avral Thompson,President,"Airline Division, Brewery, Bakery, & Soft Drink, Building Material and Construction Trade Division, Convention, Trade Show & Casino Division, Food Processing Division, Freight Division, Industrial Trades Division, Package Division, Public Services and Health Care Division, Tankhaul Division, Warehouse Division","3813 Taylor Boulevard Louisville KY , 40215",38.188497,-85.782995,2026-02-03T08:59:28.293557
90,Teamsters LU No 90,Des Moines,IA,50317,(515) 262-3194,,https://www.teamsterslocal90.org,Alano De La Rosa,Secretary-Treasurer,"Brewery, Bakery, & Soft Drink, Building Material and Construction Trade Division, Industrial Trades Division, Package Division, Passenger Transportation, Public Services and Health Care Division, Tankhaul Division, Warehouse Division","2425 Delaware Avenue Des Moines IA , 50317",41.617919,-93.581212,2026-02-03T08:59:28.293560
91,Teamsters LU No 91,Ottawa Ont,CN,K1G 5T4,(613) 247-9191,bmacdonald@teamsters91.ca,https://www.teamsters91.com,Roy Graham,President,"Building Material and Construction Trade Division, Convention, Trade Show & Casino Division, Freight Division, Industrial Trades Division, Package Division, Passenger Transportation, Public Services and Health Care Division, Solid Waste and Recycling Division, Warehouse Division","1300 Ages Drive Ottawa Ont CN , K1G 5T4",45.38507,-75.605163,2026-02-03T08:59:28.293562
92,Teamsters LU No 92,Canton,OH,44707,(330) 453-0135,,,Damian Kungle,President,"Brewery, Bakery, & Soft Drink, Building Material and Construction Trade Division, Convention, Trade Show & Casino Division, Food Processing Division, Freight Division, Industrial Trades Division, Package Division, Public Services and Health Care Division, Solid Waste and Recycling Division, Tankhaul Division, Warehouse Division","1127 Ninth Street SW Canton OH , 44707",40.793724,-81.386822,2026-02-03T08:59:28.293565
95,Teamsters LU No 95,Williamsburg,VA,23185,(757) 253-2919,business.agent@teamsterslocal95.com,,Bryan Bishop,Secretary-Treasurer,"Brewery, Bakery, & Soft Drink","7294 Merrimac Trail Williamsburg VA , 23185",37.256047,-76.666562,2026-02-03T08:59:28.293567
96,Teamsters LU No 96,Suitland,MD,20746,(240) 619-3151,teamsters96@comcast.net,https://www.ibtlocal96.com,Wilder Reed,President,,"5627 Allentown, #202 Suitland MD , 20746",38.810877,-76.897592,2026-02-03T08:59:28.293570
97,Teamsters LU No 97,Clark,NJ,07066,(732) 381-1090,teamsterslocal.ninetyseven@verizon.net,https://www.teamsterslocal97.org,Maria S. Perez,President,"Brewery, Bakery, & Soft Drink, Building Material and Construction Trade Division, Industrial Trades Division, Public Services and Health Care Division, Tankhaul Division, Warehouse Division","136 Central Avenue Clark NJ , 07066",40.629602,-74.307694,2026-02-03T08:59:28.293573
100,Teamsters LU No 100,Cincinnati,OH,45241,(513) 769-5100,sarahm@teamsterslocal100.com,https://www.teamsterslocal100.com,William C. Davis,President,"Building Material and Construction Trade Division, Convention, Trade Show & Casino Division, Express Division, Freight Division, Industrial Trades Division, Package Division, Passenger Transportation, Public Services and Health Care Division, Solid Waste and Recycling Division, Tankhaul Division, Warehouse Division","2100 Oak Road Cincinnati OH , 45241",39.261825,-84.439443,2026-02-03T08:59:28.293576
104,Teamsters LU No 104,Phoenix,AZ,85009,(602) 272-5561,teamsters@teamsterslocal104.com,https://www.teamsterslocal104.com,Karla Schumann,Secretary-Treasurer,"Airline Division, Brewery, Bakery, & Soft Drink, Building Material and Construction Trade Division, Food Processing Division, Freight Division, Industrial Trades Division, Motion Picture and Theratical Trade Division, Package Division, Passenger Transportation, Public Services and Health Care Division, Warehouse Division","1450 South 27th Ave. Phoenix AZ , 85009",33.433637,-112.117837,2026-02-03T08:59:28.293579
106,Teamsters LU No 106,Montreal Que,CN,H1B 5X1,(514) 645-9016,,,Denis Ouellette,President,"Freight Division, Industrial Trades Division, Passenger Transportation, Public Services and Health Care Division, Solid Waste and Recycling Division, Tankhaul Division, Warehouse Division","12100 P.U.Charbonneau Montreal Que CN , H1B 5X1",45.63098,-73.497744,2026-02-03T08:59:28.293581
107,Teamsters LU No 107,Philadelphia,PA,19154,(215) 552-0070,office@teamsters107.com,https://www.teamsters107.com,William Hamilton,President,"Brewery, Bakery, & Soft Drink, Building Material and Construction Trade Division, Convention, Trade Show & Casino Division, Express Division, Food Processing Division, Freight Division, Industrial Trades Division, Package Division, Public Services and Health Care Division, Solid Waste and Recycling Division, Tankhaul Division, Warehouse Division","12275 Townsend Road Philadelphia PA , 19154",40.102527,-74.983515,2026-02-03T08:59:28.293584
110,Teamsters LU No 110,Ebensburg,PA,15931,(814) 472-6646,rkeller1022@gmail.com,,Darrell P. Watt,President,"Brewery, Bakery, & Soft Drink, Building Material and Construction Trade Division, Food Processing Division, Freight Division, Package Division, Passenger Transportation, Public Services and Health Care Division, Tankhaul Division, Warehouse Division","Post Office Box 180 Ebensburg PA , 15931",40.684554,-78.418527,2026-02-03T08:59:28.293586
115,Teamsters LU No 115,Philadelphia,PA,19154,(215) 335-0100,mail@teamsters115.org,,Shane P. Reilly,Secretary-Treasurer,"Brewery, Bakery, & Soft Drink, Building Material and Construction Trade Division, Convention, Trade Show & Casino Division, Industrial Trades Division, Passenger Transportation, Public Services and Health Care Division, Solid Waste and Recycling Division, Tankhaul Division, Warehouse Division","10965 Decatur Road Philadelphia PA , 19154",40.091864,-74.991157,2026-02-03T08:59:28.293588
117,Teamsters LU No 117,Tukwila,WA,98168-4652,(206) 441-4860,,https://www.teamsters117.org,Paul Dascher,Secretary-Treasurer,"Airline Division, Brewery, Bakery, & Soft Drink, Building Material and Construction Trade Division, Convention, Trade Show & Casino Division, Food Processing Division, Freight Division, Industrial Trades Division, Motion Picture and Theratical Trade Division, Passenger Transportation, Public Services and Health Care Division, Solid Waste and Recycling Division, Tankhaul Division, Warehouse Division","14675 Interurban S307 Tukwila WA , 98168-4652",47.471817,-122.255166,2026-02-03T08:59:28.293591
118,Teamsters LU No 118,Rochester,NY,14623,(585) 256-1350,,https://www.teamsterslocal118.org,Timothy L. Barbeto,President,"Brewery, Bakery, & Soft Drink, Building Material and Construction Trade Division, Express Division, Food Processing Division, Freight Division, Industrial Trades Division, Package Division, Passenger Transportation, Public Services and Health Care Division, Tankhaul Division, Warehouse Division","130 Metro Park Rochester NY , 14623",43.097924,-77.617563,2026-02-03T08:59:28.293595
120,Teamsters LU No 120,Blaine,MN,55434,(763) 267-6120,info@teamsterslocal120.org,https://www.teamsterslocal120.org,Tom Erickson,President,"Airline Division, Brewery, Bakery, & Soft Drink, Building Material and Construction Trade Division, Convention, Trade Show & Casino Division, Food Processing Division, Freight Division, Industrial Trades Division, Package Division, Passenger Transportation, Public Services and Health Care Division, Solid Waste and Recycling Division, Tankhaul Division, Warehouse Division","9422 Ulysses NE, #120 Blaine MN , 55434",45.141103,-93.238338,2026-02-03T08:59:28.293597
122,Teamsters LU No 122,Boston,MA,02124,(617) 268-6855,teamsterslocal122@gmail.com,https://www.ibtlocal122.org,Christopher O'Leary,Secretary-Treasurer,,"100 Hallet Street Suite 202 Boston MA , 02124",42.341297,-71.048221,2026-02-03T08:59:28.293601
125,Teamsters LU No 125,Wayne,NJ,07470,(973) 790-8300,,https://www.teamsters125.org,Paxton Ryan,President,"Brewery, Bakery, & Soft Drink, Food Processing Division, Industrial Trades Division, Public Services and Health Care Division, Solid Waste and Recycling Division, Warehouse Division","585 Hamburg Tnpk 2nd Wayne NJ , 07470",40.954528,-74.217355,2026-02-03T08:59:28.293603
127,Teamsters LU No 127,Milford,MA,01757,(508) 473-0510,teamsters127@verizon.net,https://www.teamsters127.org,George McGilloway,Secretary-Treasurer,Public Services and Health Care Division,"197 Main Street, Suite 201 Milford MA , 01757",42.140442,-71.520672,2026-02-03T08:59:28.293605
135,Teamsters LU No 135,Indianapolis,IN,46225,(317) 639-3541,,https://www.local135.com,Dustin T. Roach,President,"Airline Division, Brewery, Bakery, & Soft Drink, Building Material and Construction Trade Division, Convention, Trade Show & Casino Division, Express Division, Food Processing Division, Freight Division, Industrial Trades Division, Package Division, Public Services and Health Care Division, Solid Waste and Recycling Division, Tankhaul Division, Warehouse Division","2829 Madison Avenue Indianapolis IN , 46225",39.755263,-86.158876,2026-02-03T08:59:28.293608
137,Teamsters LU No 137,Redding,CA,96001,(530) 243-0232,contact@teamsters137.com,https://www.teamsters137.com,Russ Butler,Secretary-Treasurer,"Brewery, Bakery, & Soft Drink, Building Material and Construction Trade Division, Food Processing Division, Freight Division, Industrial Trades Division, Package Division, Passenger Transportation, Public Services and Health Care Division, Solid Waste and Recycling Division, Warehouse Division","3540 S. Market Street Redding CA , 96001",40.561975,-122.388024,2026-02-03T08:59:28.293611
142,Teamsters LU No 142,Gary,IN,46404,(219) 949-1550,mailbox142@teamsters142.org,https://www.teamsters142.org,Harvey Jackson,Secretary-Treasurer,"Brewery, Bakery, & Soft Drink, Building Material and Construction Trade Division, Express Division, Food Processing Division, Freight Division, Industrial Trades Division, Passenger Transportation, Public Services and Health Care Division, Solid Waste and Recycling Division, Tankhaul Division, Warehouse Division","1300 Clark Road Gary IN , 46404",41.589107,-87.396939,2026-02-03T08:59:28.293613
150,Teamsters LU No 150,Sacramento,CA,95823,(916) 392-7070,teamsters@teamsters150.org,https://www.teamsters150.org,Dale Wentz,Secretary-Treasurer,"Airline Division, Brewery, Bakery, & Soft Drink, Building Material and Construction Trade Division, Convention, Trade Show & Casino Division, Food Processing Division, Freight Division, Industrial Trades Division, Package Division, Passenger Transportation, Public Services and Health Care Division, Solid Waste and Recycling Division, Warehouse Division","7120 East Parkway Sacramento CA , 95823",38.497981,-121.451158,2026-02-03T08:59:28.293616
155,Teamsters LU No 155,Vancouver BC,CN,V5T 1X3,(604) 876-8898,team155@teamsters155.org,https://www.teamsters155.org,David Holm,Secretary-Treasurer,Motion Picture and Theratical Trade Division,"490 East Broadway Vancouver BC CN , V5T 1X3",49.262198,-123.093628,2026-02-03T08:59:28.293619
162,Teamsters LU No 162,Portland,OR,97230,(503) 257-0162,,https://www.teamsters162.com,Bob Sleight,Secretary-Treasurer,"Brewery, Bakery, & Soft Drink, Building Material and Construction Trade Division, Express Division, Freight Division, Industrial Trades Division, Package Division, Public Services and Health Care Division, Tankhaul Division, Warehouse Division","1850 NE 162nd Avenue Portland OR , 97230",45.536257,-122.495216,2026-02-03T08:59:28.293621
166,Teamsters LU No 166,Bloomington,CA,92316-0899,,info@teamsters166.com,https://teamsters166.com/,Mike Pharris,Secretary-Treasurer,"Brewery, Bakery, & Soft Drink, Building Material and Construction Trade Division, Food Processing Division, Industrial Trades Division, Passenger Transportation, Public Services and Health Care Division, Warehouse Division","Post Office Box 899 Bloomington CA , 92316-0899",34.43731,-116.919522,2026-02-03T08:59:28.293623
169,Teamsters LU No 169,Elkins Park,PA,19027,(215) 635-1696,ibtlocal169@gmail.com,,Robert Brunner,President,"Building Material and Construction Trade Division, Convention, Trade Show & Casino Division, Food Processing Division, Freight Division, Industrial Trades Division, Warehouse Division","1363 W. Cheltenham Av Elkins Park PA , 19027",40.063498,-75.139362,2026-02-03T08:59:28.293626
170,Teamsters LU No 170,Worcester,MA,01604,(508) 799-0551,sgeorge@teamsters170.com,https://www.teamsters170.com,Shannon R. George,Secretary-Treasurer,"Brewery, Bakery, & Soft Drink, Building Material and Construction Trade Division, Convention, Trade Show & Casino Division, Food Processing Division, Freight Division, Industrial Trades Division, Package Division, Passenger Transportation, Public Services and Health Care Division, Solid Waste and Recycling Division, Tankhaul Division, Warehouse Division","330 Southwest Cutoff Ste 201 Worcester MA , 01604",42.224779,-71.767271,2026-02-03T08:59:28.293629
171,Teamsters LU No 171,Salem,VA,24153,(540) 375-8870,office@teamster171.org,,Michael T. Robertson,President,"Brewery, Bakery, & Soft Drink, Freight Division, Package Division, Tankhaul Division, Warehouse Division","2550 West Main Street Salem VA , 24153",37.282106,-80.104205,2026-02-03T08:59:28.293631
173,Teamsters LU No 173,Bradenton,FL,34208,(941) 747-2971,president@teamsters173.com,,Richard Alan Zebracki,President,,"824 26th Avenue East Bradenton FL , 34208",27.476428,-82.555487,2026-02-03T08:59:28.293633
174,Teamsters LU No 174,Tukwila,WA,98168-4652,(206) 441-6060,,https://www.teamsters174.net,Rick Hicks,Secretary-Treasurer,"Airline Division, Brewery, Bakery, & Soft Drink, Building Material and Construction Trade Division, Express Division, Food Processing Division, Freight Division, Industrial Trades Division, Motion Picture and Theratical Trade Division, Package Division, Passenger Transportation, Public Services and Health Care Division, Solid Waste and Recycling Division, Tankhaul Division, Warehouse Division","14675 Interurban S303 Tukwila WA , 98168-4652",47.471817,-122.255166,2026-02-03T08:59:28.293635
175,Teamsters LU No 175,South Charleston,WV,25303,(304) 744-2193,info@teamsters175.org,https://www.teamsters175.org,Steve Day,President,"Brewery, Bakery, & Soft Drink, Building Material and Construction Trade Division, Convention, Trade Show & Casino Division, Food Processing Division, Freight Division, Industrial Trades Division, Package Division, Public Services and Health Care Division, Solid Waste and Recycling Division, Tankhaul Division, Warehouse Division","267 Staunton Ave SW South Charleston WV , 25303",38.356624,-81.695541,2026-02-03T08:59:28.293639
177,Teamsters LU No 177,Hillside,NJ,07205,(973) 923-7070,TLOCAL177@aol.com,https://www.teamsterslocal177.org,Chris Eltzholtz,Secretary-Treasurer,Package Division,"282 Hillside Avenue Hillside NJ , 07205",40.700659,-74.229032,2026-02-03T08:59:28.293644
179,Teamsters LU No 179,Joliet,IL,60431,(815) 741-2200,local179@sbcglobal.net,https://www.teamsters179.org,Christopher Richter,President,"Brewery, Bakery, & Soft Drink, Building Material and Construction Trade Division, Food Processing Division, Freight Division, Industrial Trades Division, Package Division, Passenger Transportation, Public Services and Health Care Division, Solid Waste and Recycling Division, Tankhaul Division, Warehouse Division","1000 NE Frontage Road Joliet IL , 60431",41.540224,-88.178829,2026-02-03T08:59:28.293646
186,Teamsters LU No 186,Ventura,CA,93003,(805) 644-0070,jedlocal186@yahoo.com,https://www.teamsterslocal186.org/,Abel Garcia,Secretary-Treasurer,"Brewery, Bakery, & Soft Drink, Building Material and Construction Trade Division, Food Processing Division, Freight Division, Package Division, Passenger Transportation, Public Services and Health Care Division, Tankhaul Division, Warehouse Division","1534 Eastman Ave.,#B Ventura CA , 93003",34.258827,-119.229884,2026-02-03T08:59:28.293649
190,Teamsters LU No 190,Billings,MT,59105,(406) 248-2658,jlarson@teamsters190.com,https://www.teamsters190.com,Jim Soumas,Secretary-Treasurer,"Brewery, Bakery, & Soft Drink, Building Material and Construction Trade Division, Food Processing Division, Freight Division, Package Division, Passenger Transportation, Public Services and Health Care Division, Solid Waste and Recycling Division, Tankhaul Division, Warehouse Division","Post Office Box 50969 Billings MT , 59105",45.949726,-108.599037,2026-02-03T08:59:28.293651
191,Teamsters LU No 191,Bridgeport,CT,06605,(203) 368-0231,office@teamsterslocal191.com,,Robert DiGirolamo,Secretary-Treasurer,"Building Material and Construction Trade Division, Freight Division, Industrial Trades Division, Package Division, Passenger Transportation, Public Services and Health Care Division, Solid Waste and Recycling Division, Tankhaul Division","1139 Fairfield Avenue Bridgeport CT , 06605",41.173636,-73.206077,2026-02-03T08:59:28.293653
200,Teamsters LU No 200,Milwaukee,WI,53213,(414) 771-6363,info@teamsterslocal200.com,https://teamsterslocal200.com,Mark Hanley,Secretary-Treasurer,"Brewery, Bakery, & Soft Drink, Building Material and Construction Trade Division, Food Processing Division, Freight Division, Industrial Trades Division, Package Division, Public Services and Health Care Division, Solid Waste and Recycling Division, Tankhaul Division, Warehouse Division","6200 W. Bluemound Rd Milwaukee WI , 53213",43.036652,-87.990514,2026-02-03T08:59:28.293655
202,Teamsters LU No 202,Bronx,NY,10474,(718) 328-7000,local202@aol.com,,"Daniel J. Kane, Jr.",President,"Brewery, Bakery, & Soft Drink, Building Material and Construction Trade Division, Convention, Trade Show & Casino Division, Food Processing Division, Freight Division, Industrial Trades Division, Passenger Transportation, Public Services and Health Care Division, Warehouse Division","N Y City Term Mkt,12A Bronx NY , 10474",40.813929,-73.884104,2026-02-03T08:59:28.293658
205,Teamsters LU No 205,White Oak,PA,15131,(412) 751-7988,teamsters205@teamsters205.com,https://www.teamsters205.org,Carl A. Bailey,Secretary-Treasurer,"Food Processing Division, Passenger Transportation, Public Services and Health Care Division, Solid Waste and Recycling Division","1184 Long Run Road White Oak PA , 15131",40.332438,-79.813518,2026-02-03T08:59:28.293660
206,Teamsters LU No 206,Portland,OR,97230,(503) 251-2344,,,Dan Soeby,Secretary-Treasurer,"Brewery, Bakery, & Soft Drink, Building Material and Construction Trade Division, Convention, Trade Show & Casino Division, Food Processing Division, Freight Division, Industrial Trades Division, Package Division, Passenger Transportation, Public Services and Health Care Division, Solid Waste and Recycling Division, Tankhaul Division, Warehouse Division","1860 NE 162nd Avenue Portland OR , 97230",45.536132,-122.494841,2026-02-03T08:59:28.293662
210,Teamsters LU No 210,Staten Island,NY,10314,(212) 757-3463,ea@ibtlocal210.org,https://www.ibtlocal210.org,Robert Bellach,Secretary-Treasurer,"Airline Division, Building Material and Construction Trade Division, Food Processing Division, Freight Division, Industrial Trades Division, Motion Picture and Theratical Trade Division, Passenger Transportation, Public Services and Health Care Division, Solid Waste and Recycling Division, Tankhaul Division, Warehouse Division","1911 Richmond Avenue Staten Island NY , 10314",40.705121,-74.0114,2026-02-03T08:59:28.293665
211,Teamsters LU No 211,Carnegie,PA,15106,(412) 276-2373,ibt211@verizon.net,,Joseph A. Molinero,President,,"1100 Washington Ave # 304 Carnegie PA , 15106",40.3980601,-80.0866301,2026-02-03T08:59:28.293667
213,Teamsters LU No 213,Vancouver BC,CN,V5T 1X3,(604) 876-5213,team213@teamster213.org,https://www.teamsters213.org,Tony Santavenere,Secretary-Treasurer,"Brewery, Bakery, & Soft Drink, Building Material and Construction Trade Division, Food Processing Division, Freight Division, Industrial Trades Division, Package Division, Passenger Transportation, Public Services and Health Care Division, Solid Waste and Recycling Division, Tankhaul Division, Warehouse Division","490 E. Broadway Vancouver BC CN , V5T 1X3",49.262198,-123.093628,2026-02-03T08:59:28.293670
214,Teamsters LU No 214,Detroit,MI,48216,(313) 962-7729,lwilson@teamsters214.org,,Joseph M. Valenti,President,Public Services and Health Care Division,"2825 Trumbull Avenue Detroit MI , 48216",42.337465,-83.070742,2026-02-03T08:59:28.293673
215,Teamsters LU No 215,Evansville,IN,47706,(812) 424-6471,teamsters215@att.net,,Earl R. Brown,President,"Brewery, Bakery, & Soft Drink, Building Material and Construction Trade Division, Food Processing Division, Freight Division, Industrial Trades Division, Package Division, Public Services and Health Care Division, Solid Waste and Recycling Division, Tankhaul Division, Warehouse Division","Post Office Box 1040 Evansville IN , 47706",37.997128,-87.574963,2026-02-03T08:59:28.293675
222,Teamsters LU No 222,Salt Lake City,UT,84119,(801) 972-1898,,https://www.teamsterslocal222.org,Spencer L. Hogue,Secretary-Treasurer,"Airline Division, Brewery, Bakery, & Soft Drink, Building Material and Construction Trade Division, Express Division, Food Processing Division, Freight Division, Industrial Trades Division, Package Division, Passenger Transportation, Public Services and Health Care Division, Tankhaul Division, Warehouse Division","2641 South 3270 West Salt Lake City UT , 84119",40.71261,-111.968595,2026-02-03T08:59:28.293678
223,Teamsters LU No 223,Gladstone,OR,97027,(503) 256-5995,,https://www.teamsters223.com,Austin DePaolo,Secretary-Treasurer,"Food Processing Division, Freight Division, Industrial Trades Division, Public Services and Health Care Division, Warehouse Division","15 82nd Drive Suite 10 Gladstone OR , 97027",45.532016,-122.553414,2026-02-03T08:59:28.293681
229,Teamsters LU No 229,Scranton,PA,18503,(570) 344-7219,teamsters229@teamsters229.org,https://www.teamsters229.org,Mike Kovaleski,Secretary-Treasurer,"Brewery, Bakery, & Soft Drink, Building Material and Construction Trade Division, Food Processing Division, Freight Division, Industrial Trades Division, Package Division, Public Services and Health Care Division, Warehouse Division","431 Wyoming Avenue Scranton PA , 18503",41.437665,-75.615266,2026-02-03T08:59:28.293684
230,Teamsters LU No 230,Markham Ont,CN,L3R 3L4,(905) 415-5139,info@teamsterlocal230.org,,Ken D. Hall,President,"Building Material and Construction Trade Division, Freight Division, Industrial Trades Division, Solid Waste and Recycling Division","431 Alden Road, #15 Markham Ont CN , L3R 3L4",43.834132,-79.332427,2026-02-03T08:59:28.293686
231,Teamsters LU No 231,Bellingham,WA,98227,(360) 734-7780,,https://www.231teamsters.org,Heather Ewing,Secretary-Treasurer,"Brewery, Bakery, & Soft Drink, Building Material and Construction Trade Division, Food Processing Division, Freight Division, Package Division, Public Services and Health Care Division, Solid Waste and Recycling Division, Tankhaul Division, Warehouse Division","Post Office Box H Bellingham WA , 98227",48.814753,-121.988548,2026-02-03T08:59:28.293689
236,Teamsters LU No 236,Paducah,KY,42002,(270) 442-1669,local236@bellsouth.net,,Darren Woodward,President,"Brewery, Bakery, & Soft Drink, Building Material and Construction Trade Division, Convention, Trade Show & Casino Division, Food Processing Division, Freight Division, Industrial Trades Division, Package Division, Public Services and Health Care Division, Tankhaul Division","Post Office Box 7454 Paducah KY , 42002",37.085511,-88.71247,2026-02-03T08:59:28.293692
237,Teamsters LU No 237,New York,NY,10011,(212) 924-2000,greyes@local237.org,https://www.local237.org,Gregory Floyd,President,Public Services and Health Care Division,"216 West 14th Street New York NY , 10011",40.738617,-74.000108,2026-02-03T08:59:28.293694
238,Teamsters LU No 238,Cedar Rapids,IA,52404,(319) 365-1461,,https://www.teamsterslocal238.com,Jesse Case,Secretary-Treasurer,"Brewery, Bakery, & Soft Drink, Building Material and Construction Trade Division, Food Processing Division, Freight Division, Industrial Trades Division, Package Division, Passenger Transportation, Public Services and Health Care Division, Tankhaul Division, Warehouse Division","5000 J Street SW Cedar Rapids IA , 52404",41.93026,-91.667018,2026-02-03T08:59:28.293696
243,Teamsters LU No 243,Plymouth Twp,MI,48170,(734) 420-6900,,https://www.teamsters243.org,Scott Quenneville,President,"Brewery, Bakery, & Soft Drink, Building Material and Construction Trade Division, Convention, Trade Show & Casino Division, Freight Division, Industrial Trades Division, Package Division, Passenger Transportation, Public Services and Health Care Division, Warehouse Division","39420 Schoolcraft Plymouth Twp MI , 48170",42.382803,-83.431876,2026-02-03T08:59:28.293698
245,Teamsters LU No 245,Springfield,MO,65803,(417) 866-7206,teamsters245@sbcglobal.net,,Bryan Emory,Secretary-Treasurer,"Brewery, Bakery, & Soft Drink, Building Material and Construction Trade Division, Food Processing Division, Freight Division, Industrial Trades Division, Package Division, Passenger Transportation, Public Services and Health Care Division, Warehouse Division","1850 E. Division Springfield MO , 65803",37.224822,-93.259751,2026-02-03T08:59:28.293701
247,Teamsters LU No 247,Detroit,MI,48216,(313) 961-0068,ibt247@sbcglobal.net,,"Lloyd ""Rick"" Dubroy",Secretary-Treasurer,"Brewery, Bakery, & Soft Drink, Building Material and Construction Trade Division, Industrial Trades Division, Solid Waste and Recycling Division, Warehouse Division","2741 Trumbull Avenue Detroit MI , 48216",42.336512,-83.070856,2026-02-03T08:59:28.293703
249,Teamsters LU No 249,Pittsburgh,PA,15201,(412) 682-3700,info@teamsters249.org,https://teamsterslocal249.org/,Kevin M. Schmitt,President,"Brewery, Bakery, & Soft Drink, Building Material and Construction Trade Division, Convention, Trade Show & Casino Division, Express Division, Food Processing Division, Freight Division, Industrial Trades Division, Package Division, Passenger Transportation, Public Services and Health Care Division, Solid Waste and Recycling Division, Tankhaul Division, Warehouse Division","Post Office Box 40128 Pittsburgh PA , 15201",40.467043,-79.954976,2026-02-03T08:59:28.293705
250,Teamsters LU No 250,Pittsburgh,PA,15203,(412) 481-5233,gpedicone@teamsters250.org,https://www.teamsters250.org,Keith A. Kuzmanko,Secretary-Treasurer,"Brewery, Bakery, & Soft Drink, Convention, Trade Show & Casino Division, Industrial Trades Division, Public Services and Health Care Division, Warehouse Division","3700 S. Water St,#160 Pittsburgh PA , 15203",40.41869,-79.955503,2026-02-03T08:59:28.293708
251,Teamsters LU No 251,E. Providence,RI,02914,(401) 434-0454,mtaibi.ibt251@gmail.com,https://www.teamsterslocal251.org,Matthew Taibi,Secretary-Treasurer,"Airline Division, Brewery, Bakery, & Soft Drink, Building Material and Construction Trade Division, Convention, Trade Show & Casino Division, Express Division, Food Processing Division, Freight Division, Industrial Trades Division, Package Division, Passenger Transportation, Public Services and Health Care Division, Solid Waste and Recycling Division, Tankhaul Division, Warehouse Division","121 Brightridge Ave E. Providence RI , 02914",41.808511,-71.365077,2026-02-03T08:59:28.293710
252,Teamsters LU No 252,Centralia,WA,98531-4449,(360) 736-9979,brian252@teamsters252.org,https://www.teamsters252.org,Brian Blaisdell,Secretary-Treasurer,"Brewery, Bakery, & Soft Drink, Building Material and Construction Trade Division, Convention, Trade Show & Casino Division, Food Processing Division, Freight Division, Industrial Trades Division, Package Division, Passenger Transportation, Public Services and Health Care Division, Solid Waste and Recycling Division, Tankhaul Division, Warehouse Division","217 East Main Street Centralia WA , 98531-4449",46.716137,-122.952735,2026-02-03T08:59:28.293714
261,Teamsters LU No 261,New Castle,PA,16105,(724) 658-5554,mleckwart@teamsters261.com,,Michael Leckwart,President,"Brewery, Bakery, & Soft Drink, Building Material and Construction Trade Division, Food Processing Division, Freight Division, Industrial Trades Division, Package Division, Passenger Transportation, Public Services and Health Care Division, Solid Waste and Recycling Division, Tankhaul Division, Warehouse Division","351 Northgate Cir, #A New Castle PA , 16105",41.066535,-80.367253,2026-02-03T08:59:28.293717
264,Teamsters LU No 264,Cheektowaga,NY,14227,(716) 668-8007,,https://www.teamsters264.org,Brian Dickman,President,"Brewery, Bakery, & Soft Drink, Building Material and Construction Trade Division, Food Processing Division, Freight Division, Industrial Trades Division, Package Division, Passenger Transportation, Public Services and Health Care Division, Tankhaul Division, Warehouse Division","35 Tyrol Drive Cheektowaga NY , 14227",42.87209,-78.752913,2026-02-03T08:59:28.293720
267,Teamsters LU No 267,Fort Collins,CO,80524,(970) 482-2749,,,Michael Cova,Secretary-Treasurer,"Brewery, Bakery, & Soft Drink","434 S. Link Lane Fort Collins CO , 80524",40.582561,-105.049416,2026-02-03T08:59:28.293722
270,Teamsters LU No 270,New Orleans,LA,70177,(504) 945-3152,teamsters270@teamsters270.com,,"Stephen Sorrell, Jr.",President,"Brewery, Bakery, & Soft Drink, Building Material and Construction Trade Division, Convention, Trade Show & Casino Division, Food Processing Division, Freight Division, Industrial Trades Division, Package Division, Passenger Transportation, Solid Waste and Recycling Division, Tankhaul Division, Warehouse Division","Post Office Box 3398 New Orleans LA , 70177",30.032997,-89.882564,2026-02-03T08:59:28.293724
272,Teamsters LU No 272,New York,NY,10010,(212) 726-9726,local272nyc.ibt@gmail.com,https://www.teamsterslocal272.org,Fred Alston,Secretary-Treasurer,"Industrial Trades Division, Public Services and Health Care Division","220 E 23rd St., Rm 801 New York NY , 10010",40.738261,-73.982199,2026-02-03T08:59:28.293727
282,Teamsters LU No 282,Lake Success,NY,11042,(516) 488-2822,,https://www.teamsterslocal282.com,Thomas Gesualdi,President,"Building Material and Construction Trade Division, Freight Division, Industrial Trades Division, Public Services and Health Care Division, Solid Waste and Recycling Division, Tankhaul Division, Warehouse Division","2500 Marcus Avenue Lake Success NY , 11042",40.759271,-73.697455,2026-02-03T08:59:28.293729
283,Teamsters LU No 283,Wyandotte,MI,48192,(734) 282-8850,teamsters283@wyan.org,https://www.teamsters283.com,,,"Building Material and Construction Trade Division, Convention, Trade Show & Casino Division, Industrial Trades Division, Passenger Transportation, Public Services and Health Care Division, Solid Waste and Recycling Division, Tankhaul Division","1625 Fort Street Wyandotte MI , 48192",42.217058,-83.180553,2026-02-03T08:59:28.293731
284,Teamsters LU No 284,Columbus,OH,43215,(614) 228-0727,,https://www.teamsters284.unionactive.com,Mark Vandak,President,"Airline Division, Brewery, Bakery, & Soft Drink, Building Material and Construction Trade Division, Food Processing Division, Industrial Trades Division, Passenger Transportation, Public Services and Health Care Division, Solid Waste and Recycling Division, Warehouse Division","555 E. Rich Street Columbus OH , 43215",39.959008,-82.984758,2026-02-03T08:59:28.293734
287,Teamsters LU No 287,San Jose,CA,95112,(408) 453-0287,info@teamsters287.org,,Jerry Sweeney,Secretary-Treasurer,"Building Material and Construction Trade Division, Express Division, Freight Division, Industrial Trades Division, Package Division, Passenger Transportation, Public Services and Health Care Division, Solid Waste and Recycling Division, Tankhaul Division, Warehouse Division","1452 N 4th Street San Jose CA , 95112",37.3644767,-121.906908,2026-02-03T08:59:28.293737
289,Teamsters LU No 289,Minneapolis,MN,55414,(612) 331-3480,mikedebuck@teamsterslocal289.org,https://www.teamsterslocal289.org,Mike DeBuck,Secretary-Treasurer,,"3001 Univ Ave SE,#305 Minneapolis MN , 55414",44.979513,-93.227354,2026-02-03T08:59:28.293740
293,Teamsters LU No 293,Independence,OH,44131,(216) 739-9489,mzemla293@sbcglobal.net,https://www.teamsters293.org,Michael H. Zemla,Secretary-Treasurer,"Brewery, Bakery, & Soft Drink, Building Material and Construction Trade Division, Convention, Trade Show & Casino Division, Food Processing Division, Industrial Trades Division, Passenger Transportation, Public Services and Health Care Division, Warehouse Division","5505 Valley Belt Rd,D Independence OH , 44131",41.418104,-81.651019,2026-02-03T08:59:28.293742
294,Teamsters LU No 294,Albany,NY,12206,(518) 489-5436,,https://www.teamsterslocal294.org,Thomas Quackenbush,President,"Brewery, Bakery, & Soft Drink, Building Material and Construction Trade Division, Convention, Trade Show & Casino Division, Food Processing Division, Freight Division, Industrial Trades Division, Package Division, Passenger Transportation, Public Services and Health Care Division, Solid Waste and Recycling Division, Tankhaul Division, Warehouse Division","890 3rd St Labor Temp Albany NY , 12206",42.67898,-73.785794,2026-02-03T08:59:28.293745
295,Teamsters LU No 295,Valley Stream,NY,11580,(516) 568-1970,,https://www.local295.com,Lou Calemine,President,"Airline Division, Convention, Trade Show & Casino Division, Express Division, Freight Division, Package Division, Warehouse Division","33 W. Hawthorne, #29 Valley Stream NY , 11580",40.661421,-73.700875,2026-02-03T08:59:28.293747
299,Teamsters LU No 299,Detroit,MI,48216,(313) 965-8750,,,Kevin Moore,President,"Brewery, Bakery, & Soft Drink, Building Material and Construction Trade Division, Convention, Trade Show & Casino Division, Express Division, Food Processing Division, Freight Division, Industrial Trades Division, Package Division, Passenger Transportation, Public Services and Health Care Division, Solid Waste and Recycling Division, Tankhaul Division, Warehouse Division","2741 Trumbull Avenue Detroit MI , 48216",42.336512,-83.070856,2026-02-03T08:59:28.293749
301,Teamsters LU No 301,Waukegan,IL,60087,(847) 623-5430,,,Michael T. Haffner,Secretary-Treasurer,"Brewery, Bakery, & Soft Drink, Building Material and Construction Trade Division, Freight Division, Industrial Trades Division, Passenger Transportation, Public Services and Health Care Division, Solid Waste and Recycling Division, Tankhaul Division, Warehouse Division","36990 N. Green Bay Rd Waukegan IL , 60087",42.399018,-87.882255,2026-02-03T08:59:28.293751
305,Teamsters LU No 305,Portland,OR,97230,(503) 251-2305,office@teamsters305.com,,Steve Konopa,Secretary-Treasurer,"Airline Division, Brewery, Bakery, & Soft Drink, Food Processing Division, Freight Division, Industrial Trades Division, Motion Picture and Theratical Trade Division, Passenger Transportation, Public Services and Health Care Division, Solid Waste and Recycling Division, Warehouse Division","1870 NE 162nd Avenue Portland OR , 97230",45.536089,-122.492167,2026-02-03T08:59:28.293754
313,Teamsters LU No 313,Tacoma,WA,98402,(253) 627-0103,teamsters313@teamsters313.org,https://www.teamsters313.org,Nick Lansdale,Secretary-Treasurer,"Brewery, Bakery, & Soft Drink, Building Material and Construction Trade Division, Food Processing Division, Freight Division, Industrial Trades Division, Package Division, Passenger Transportation, Public Services and Health Care Division, Solid Waste and Recycling Division, Tankhaul Division, Warehouse Division","220 S 27th Street Tacoma WA , 98402",47.236706,-122.435858,2026-02-03T08:59:28.293756
315,Teamsters LU No 315,Martinez,CA,94553,(925) 228-2246,Dgarcia@teamster315.com,https://www.teamsters315.com,Don E. Garcia,Secretary-Treasurer,"Brewery, Bakery, & Soft Drink, Building Material and Construction Trade Division, Food Processing Division, Freight Division, Industrial Trades Division, Package Division, Passenger Transportation, Public Services and Health Care Division, Solid Waste and Recycling Division, Tankhaul Division, Warehouse Division","2727 Alhambra Avenue Martinez CA , 94553",38.004645,-122.13059,2026-02-03T08:59:28.293758
317,Teamsters LU No 317,Syracuse,NY,13212,(315) 471-4164,markmay317@outlook.com,https://www.teamsterslocal317.org,Duane Wright,Secretary-Treasurer,"Brewery, Bakery, & Soft Drink, Building Material and Construction Trade Division, Express Division, Food Processing Division, Freight Division, Industrial Trades Division, Package Division, Passenger Transportation, Public Services and Health Care Division, Solid Waste and Recycling Division, Tankhaul Division, Warehouse Division","149 Northern Concourse Suite 100 Syracuse NY , 13212",43.02143,-76.197701,2026-02-03T08:59:28.293763
320,Teamsters LU No 320,Minneapolis,MN,55414,(612) 378-8700,local320@teamsterslocal320.org,https://www.teamsterslocal320.org,David Erik Skoog,Secretary-Treasurer,,"3001 Univ Ave SE,#500 Minneapolis MN , 55414",44.979513,-93.227354,2026-02-03T08:59:28.293765
322,Teamsters LU No 322,Richmond,VA,23222,(804) 321-0356,,https://www.teamsterslocal322.org,Brian Peyton,President,"Brewery, Bakery, & Soft Drink, Freight Division, Industrial Trades Division, Package Division, Warehouse Division","3705 Carolina Avenue Richmond VA , 23222",37.581525,-77.413624,2026-02-03T08:59:28.293768
324,Teamsters LU No 324,Salem,OR,97305,(503) 378-1421,info@teamsterslocal324.org,https://www.teamsterslocal324.org,Chris R. Muhs,Secretary-Treasurer,"Brewery, Bakery, & Soft Drink, Food Processing Division, Freight Division, Package Division, Public Services and Health Care Division, Solid Waste and Recycling Division, Warehouse Division","4871 Lancaster Drive, NE Salem OR , 97305",44.961928,-123.01334,2026-02-03T08:59:28.293770
325,Teamsters LU No 325,Rockford,IL,61109,(815) 874-6307,teamsterslocal325@gmail.com,https://www.teamsterslocal325.com,Erik Calvert,Secretary-Treasurer,"Brewery, Bakery, & Soft Drink, Building Material and Construction Trade Division, Freight Division, Industrial Trades Division, Package Division, Passenger Transportation, Public Services and Health Care Division, Solid Waste and Recycling Division, Warehouse Division","5533 Eleventh St Rockford IL , 61109",42.196681,-89.065539,2026-02-03T08:59:28.293773
326,Teamsters LU No 326,New Castle,DE,19720,(302) 328-2387,,,"Joseph W. Smith, Jr.",President,"Brewery, Bakery, & Soft Drink, Building Material and Construction Trade Division, Freight Division, Industrial Trades Division, Package Division, Passenger Transportation, Public Services and Health Care Division, Solid Waste and Recycling Division, Tankhaul Division, Warehouse Division","451 E. New Churchmans New Castle DE , 19720",39.673364,-75.620737,2026-02-03T08:59:28.293775
327,Teamsters LU No 327,Nashville,TN,37211,(615) 781-1630,,,Joe H. Bennett,President,"Brewery, Bakery, & Soft Drink, Building Material and Construction Trade Division, Industrial Trades Division, Passenger Transportation, Public Services and Health Care Division, Warehouse Division","1178 Antioch Pike Nashville TN , 37211",36.096121,-86.702451,2026-02-03T08:59:28.293777
330,Teamsters LU No 330,Elgin,IL,60124,(847) 695-1516,,https://www.teamsters330.org,Dominic Romanazzi,President,"Brewery, Bakery, & Soft Drink, Building Material and Construction Trade Division, Industrial Trades Division, Passenger Transportation, Public Services and Health Care Division, Solid Waste and Recycling Division, Tankhaul Division","2400 Big Timber Road Elgin IL , 60124",42.066411,-88.336517,2026-02-03T08:59:28.293779
331,Teamsters LU No 331,Egg Harbor City,NJ,08215,(609) 641-2331,,https://www.teamsters331.org,Abimael Ortiz,President,"Brewery, Bakery, & Soft Drink, Building Material and Construction Trade Division, Convention, Trade Show & Casino Division, Food Processing Division, Freight Division, Package Division, Passenger Transportation, Public Services and Health Care Division, Solid Waste and Recycling Division, Warehouse Division","1 Philadelphia Avenue Egg Harbor City NJ , 08215",39.527798,-74.649161,2026-02-03T08:59:28.293782
332,Teamsters LU No 332,Flint,MI,48503,(810) 767-7330,dan@teamsters332.com,https://www.teamsters332.com,Dan Glass,President,"Brewery, Bakery, & Soft Drink, Building Material and Construction Trade Division, Industrial Trades Division, Package Division, Passenger Transportation, Public Services and Health Care Division, Solid Waste and Recycling Division, Tankhaul Division, Warehouse Division","1502 S Dort Highway Flint MI , 48503",43.013472,-83.655046,2026-02-03T08:59:28.293784
337,Teamsters LU No 337,Detroit,MI,48216,(313) 965-9833,,https://www.teamsters337.com,Todd Lince,President,"Brewery, Bakery, & Soft Drink, Building Material and Construction Trade Division, Convention, Trade Show & Casino Division, Food Processing Division, Freight Division, Industrial Trades Division, Package Division, Public Services and Health Care Division, Solid Waste and Recycling Division, Warehouse Division","2801 Trumbull Avenue Detroit MI , 48216",42.337173,-83.0706,2026-02-03T08:59:28.293787
340,Teamsters LU No 340,S. Portland,ME,04106,(207) 767-2106,,https://www.teamsterslocal340.org,Brett Miller,President,"Building Material and Construction Trade Division, Freight Division, Industrial Trades Division, Package Division, Passenger Transportation, Public Services and Health Care Division, Solid Waste and Recycling Division, Warehouse Division","27 Main Street S. Portland ME , 04106",43.638468,-70.284397,2026-02-03T08:59:28.293790
341,Teamsters LU No 341,Pittsburgh,PA,15216,(724) 266-8341,,,Joseph Podolak,President,,"1231 Banksville Rd Floor 2 Pittsburgh PA , 15216",40.398081,-80.084402,2026-02-03T08:59:28.293791
344,Teamsters LU No 344,Milwaukee,WI,53214,(414) 258-4545,bcarroll@local344.org,https://www.local344.org,William F. Carroll,Secretary-Treasurer,"Airline Division, Brewery, Bakery, & Soft Drink, Package Division, Warehouse Division","10020 W Greenfld Ave Milwaukee WI , 53214",43.016765,-88.037822,2026-02-03T08:59:28.293793
346,Teamsters LU No 346,Duluth,MN,55816,(218) 628-1034,local@teamsters346.com,,Zachary Radzak,Secretary-Treasurer,"Brewery, Bakery, & Soft Drink, Building Material and Construction Trade Division, Food Processing Division, Freight Division, Industrial Trades Division, Package Division, Public Services and Health Care Division, Solid Waste and Recycling Division, Tankhaul Division, Warehouse Division","Post Office Box 16208 Duluth MN , 55816",47.640367,-92.442797,2026-02-03T08:59:28.293796
348,Teamsters LU No 348,Akron,OH,44303,(330) 434-3424,,,Patrick J. Darrow,Secretary-Treasurer,"Brewery, Bakery, & Soft Drink, Building Material and Construction Trade Division, Food Processing Division, Industrial Trades Division, Package Division, Public Services and Health Care Division, Tankhaul Division, Warehouse Division","272 W. Market Street Akron OH , 44303",41.089344,-81.526744,2026-02-03T08:59:28.293798
350,Teamsters LU No 350,San Francisco,CA,94134,(650) 757-7290,k.katout@ibtlocal350.com,,Robert Sandoval,Secretary-Treasurer,,"150 Executive Park Boulevard Suite 2800 San Francisco CA , 94134",37.691622,-122.471831,2026-02-03T08:59:28.293801
355,Teamsters LU No 355,Baltimore,MD,21223,(410) 566-5700,info@teamsters355.com,https://www.teamsters355.com,Mark Garey,President,"Airline Division, Brewery, Bakery, & Soft Drink, Convention, Trade Show & Casino Division, Express Division, Food Processing Division, Freight Division, Industrial Trades Division, Package Division, Passenger Transportation, Public Services and Health Care Division, Tankhaul Division, Warehouse Division","1030 S. Dukeland St. Baltimore MD , 21223",39.275553,-76.662879,2026-02-03T08:59:28.293804
357,Teamsters LU No 357,Carmel,IN,46032,(317) 644-1405,,https://www.local357.org,Anthony Campo,President,Airline Division,"1320 City Center Drive Suite 160 Carmel IN , 46032",39.674101,-86.36664,2026-02-03T08:59:28.293806
362,Teamsters LU No 362,Calgary Alb,CN,T2H 2C9,(403) 259-4608,teamcal@teamsters362.com,https://www.teamsters362.com,Bernard Haggarty,Secretary-Treasurer,"Building Material and Construction Trade Division, Freight Division, Industrial Trades Division, Motion Picture and Theratical Trade Division, Package Division, Passenger Transportation, Public Services and Health Care Division, Solid Waste and Recycling Division, Warehouse Division","1200A-58th Ave. S.E. Calgary Alb CN , T2H 2C9",51.001951,-114.038755,2026-02-03T08:59:28.293808
364,Teamsters LU No 364,South Bend,IN,46615,(574) 234-6031,team364@gmail.com,https://www.teamsterslocal364.org,Jerod A. Warnock,President,"Brewery, Bakery, & Soft Drink, Building Material and Construction Trade Division, Convention, Trade Show & Casino Division, Express Division, Food Processing Division, Freight Division, Industrial Trades Division, Package Division, Public Services and Health Care Division, Solid Waste and Recycling Division, Tankhaul Division, Warehouse Division","2405 East Edison Road South Bend IN , 46615",41.695514,-86.21438,2026-02-03T08:59:28.293811
371,Teamsters LU No 371,Rock Island,IL,61201,(309) 787-4456,michaelkensinger@teamsterslocal371.com,https://www.teamsterslocal371.com,Michael Kensinger,President,"Brewery, Bakery, & Soft Drink, Building Material and Construction Trade Division, Food Processing Division, Freight Division, Industrial Trades Division, Package Division, Passenger Transportation, Public Services and Health Care Division, Solid Waste and Recycling Division, Tankhaul Division, Warehouse Division","101 31st Avenue Rock Island IL , 61201",41.479954,-90.597757,2026-02-03T08:59:28.293814
373,Teamsters LU No 373,Fort Smith,AR,72903,(479) 646-1639,teamsters373@cox-internet.com,https://www.teamsters373.com,Stacy Fox,President,"Brewery, Bakery, & Soft Drink, Building Material and Construction Trade Division, Freight Division, Motion Picture and Theratical Trade Division, Package Division","4314 Phoenix,Box 6268 Fort Smith AR , 72903",35.337755,-94.383861,2026-02-03T08:59:28.293816
377,Teamsters LU No 377,Youngstown,OH,44502,(330) 743-3111,teamsters377@gmail.com,https://www.teamsters377.org,"Ralph ""Sam"" Cook",Secretary-Treasurer,"Brewery, Bakery, & Soft Drink, Building Material and Construction Trade Division, Food Processing Division, Freight Division, Industrial Trades Division, Package Division, Passenger Transportation, Public Services and Health Care Division, Solid Waste and Recycling Division, Tankhaul Division, Warehouse Division","1223 Teamsters Drive Youngstown OH , 44502",41.113067,-80.667934,2026-02-03T08:59:28.293818
384,Teamsters LU No 384,Norristown,PA,19401,(610) 279-8837,ibtlocal384@gmail.com,,Michael Bonaduce,President,"Brewery, Bakery, & Soft Drink, Building Material and Construction Trade Division, Freight Division, Package Division, Passenger Transportation, Public Services and Health Care Division, Solid Waste and Recycling Division, Warehouse Division","2910 Hannah Avenue Norristown PA , 19401",40.141164,-75.309739,2026-02-03T08:59:28.293820
385,Teamsters LU No 385,Orlando,FL,32811,(407) 298-7037,lunion@local385.org,https://www.local385.org,Walter Howard,President,"Airline Division, Brewery, Bakery, & Soft Drink, Building Material and Construction Trade Division, Convention, Trade Show & Casino Division, Food Processing Division, Freight Division, Industrial Trades Division, Package Division, Passenger Transportation, Public Services and Health Care Division, Tankhaul Division, Warehouse Division","126 N Kirkman Road Orlando FL , 32811",28.543775,-81.458914,2026-02-03T08:59:28.293822
386,Teamsters LU No 386,Modesto,CA,95354,(209) 526-2755,,,Jeff Berdion,Secretary-Treasurer,"Brewery, Bakery, & Soft Drink, Building Material and Construction Trade Division, Food Processing Division, Freight Division, Package Division, Passenger Transportation, Public Services and Health Care Division, Solid Waste and Recycling Division, Tankhaul Division, Warehouse Division","1225 Thirteenth St Modesto CA , 95354",37.639029,-120.964772,2026-02-03T08:59:28.293824
391,Teamsters LU No 391,Greensboro,NC,27425,(336) 668-0441,email@teamsterslocal391.org,https://www.teamsterslocal391.org,Rick Armstrong,President,"Airline Division, Brewery, Bakery, & Soft Drink, Building Material and Construction Trade Division, Express Division, Food Processing Division, Freight Division, Industrial Trades Division, Motion Picture and Theratical Trade Division, Package Division, Passenger Transportation, Public Services and Health Care Division, Tankhaul Division, Warehouse Division","Post Office Box 35405 Greensboro NC , 27425",36.08189,-79.766231,2026-02-03T08:59:28.293826
395,Teamsters LU No 395,Saskatoon,CN,S7L 5Z5,(306) 382-7868,admin395@sasktel.net,,Joshua Cenaiko,Secretary-Treasurer,"Airline Division, Building Material and Construction Trade Division, Food Processing Division, Freight Division, Industrial Trades Division, Package Division, Passenger Transportation, Public Services and Health Care Division, Solid Waste and Recycling Division","105-2301 Avenue C North Saskatoon CN , S7L 5Z5",50.454582,-104.571807,2026-02-03T08:59:28.293830
396,Teamsters LU No 396,Covina,CA,91724,(626) 915-3636,teamsters@local396.net,https://www.teamsterslocal396.org,Victor Mineros,Secretary-Treasurer,"Package Division, Solid Waste and Recycling Division","880 Oak Park Rd, #200 Covina CA , 91724",34.07363,-117.863495,2026-02-03T08:59:28.293833
397,Teamsters LU No 397,Erie,PA,16503,(814) 454-1516,teamsterslocal397@outlook.com,https://www.teamsterslocal397.com,Douglas A. Youngs,President,"Brewery, Bakery, & Soft Drink, Building Material and Construction Trade Division, Convention, Trade Show & Casino Division, Food Processing Division, Freight Division, Industrial Trades Division, Package Division, Public Services and Health Care Division, Tankhaul Division, Warehouse Division","1344 East 11th Street Erie PA , 16503",42.135673,-80.052917,2026-02-03T08:59:28.293837
399,Teamsters LU No 399,North Hollywood,CA,91602,(818) 985-7374,,https://www.ht399.org,Lindsay Dougherty,Secretary-Treasurer,"Building Material and Construction Trade Division, Industrial Trades Division, Motion Picture and Theratical Trade Division, Passenger Transportation","4747 Vineland Avenue North Hollywood CA , 91602",34.156538,-118.370371,2026-02-03T08:59:28.293840
400,Teamsters LU No 400,Cleveland,OH,44109,(216) 778-6300,local400@sbcglobal.net,,Julie Rizzo,Secretary-Treasurer,"Food Processing Division, Industrial Trades Division, Solid Waste and Recycling Division, Warehouse Division","707 Brookpark Rd. Cleveland OH , 44109",41.418798,-81.684335,2026-02-03T08:59:28.293842
401,Teamsters LU No 401,Wilkes-Barre,PA,18703,(570) 823-3121,teamsters401@verizon.net,,Scott Kucharski,Secretary-Treasurer,"Brewery, Bakery, & Soft Drink, Building Material and Construction Trade Division, Convention, Trade Show & Casino Division, Freight Division, Industrial Trades Division, Package Division, Public Services and Health Care Division, Warehouse Division","260 S. Washington St. Wilkes-Barre PA , 18703",41.240117,-75.888346,2026-02-03T08:59:28.293844
402,Teamsters LU No 402,Muscle Shoals,AL,35661,(256) 383-2006,402teamsters@gmail.com,https://www.teamsterslocal402.org,Joe Gronek,Secretary-Treasurer,"Brewery, Bakery, & Soft Drink, Building Material and Construction Trade Division, Food Processing Division, Freight Division, Industrial Trades Division, Package Division, Passenger Transportation, Warehouse Division","2208 E 2nd Street Muscle Shoals AL , 35661",34.758721,-87.642754,2026-02-03T08:59:28.293849
404,Teamsters LU No 404,Springfield,MA,01101,(413) 781-6326,mainoffice@teamsters404.net,https://www.teamsters404.com,"Bryan J. Donovan, Jr.",President,"Brewery, Bakery, & Soft Drink, Building Material and Construction Trade Division, Freight Division, Industrial Trades Division, Package Division, Passenger Transportation, Public Services and Health Care Division, Solid Waste and Recycling Division, Tankhaul Division, Warehouse Division","115 Progress Avenue Springfield MA , 01101",42.140195,-72.533802,2026-02-03T08:59:28.293851
406,Teamsters LU No 406,Grand Rapids,MI,49508,(616) 452-1551,,,Ellis P. Wood,Secretary-Treasurer,"Brewery, Bakery, & Soft Drink, Building Material and Construction Trade Division, Convention, Trade Show & Casino Division, Food Processing Division, Freight Division, Industrial Trades Division, Package Division, Passenger Transportation, Public Services and Health Care Division, Solid Waste and Recycling Division, Tankhaul Division, Warehouse Division","3315 Eastern Ave SE Grand Rapids MI , 49508",42.903588,-85.646689,2026-02-03T08:59:28.293854
407,Teamsters LU No 407,Cleveland,OH,44114-4123,(216) 688-0833,,https://www.lu407.com,"Dennis L. Roberts, Jr",President,"Building Material and Construction Trade Division, Convention, Trade Show & Casino Division, Express Division, Food Processing Division, Freight Division, Industrial Trades Division, Package Division, Public Services and Health Care Division, Solid Waste and Recycling Division, Tankhaul Division, Warehouse Division","3320 Superior Avenue Cleveland OH , 44114-4123",41.511454,-81.6672,2026-02-03T08:59:28.293859
413,Teamsters LU No 413,Columbus,OH,43215,(614) 228-6492,local413@teamsters413.com,https://www.teamsters413.com,Tony Jones,President,"Brewery, Bakery, & Soft Drink, Building Material and Construction Trade Division, Convention, Trade Show & Casino Division, Express Division, Food Processing Division, Freight Division, Industrial Trades Division, Package Division, Passenger Transportation, Public Services and Health Care Division, Tankhaul Division","555 E Rich Street Columbus OH , 43215",39.959008,-82.984758,2026-02-03T08:59:28.293861
414,Teamsters LU No 414,Fort Wayne,IN,46808,(260) 483-7159,team414@frontier.com,https://www.teamsterslocal414.org,George T. Gerdes,Secretary-Treasurer,"Brewery, Bakery, & Soft Drink, Building Material and Construction Trade Division, Freight Division, Industrial Trades Division, Package Division, Public Services and Health Care Division, Tankhaul Division, Warehouse Division","2644 Cass Street Fort Wayne IN , 46808",41.100149,-85.145777,2026-02-03T08:59:28.293864
419,Teamsters LU No 419,Mississauga Ont,CN,L5T 1B4,(905) 670-4190,info@teamsters419.ca,https://www.teamsters419.ca,Jason Sweet,President,"Airline Division, Building Material and Construction Trade Division, Convention, Trade Show & Casino Division, Food Processing Division, Freight Division, Industrial Trades Division, Public Services and Health Care Division, Solid Waste and Recycling Division, Warehouse Division","1890 Meyerside Drive Mississauga Ont CN , L5T 1B4",43.668358,-79.644205,2026-02-03T08:59:28.293867
429,Teamsters LU No 429,Wyomissing,PA,19610,(610) 320-5521,bshappell@teamsterslocal429.org,https://www.teamsterslocal429.org,William M. Shappell,President,"Brewery, Bakery, & Soft Drink, Building Material and Construction Trade Division, Food Processing Division, Freight Division, Industrial Trades Division, Package Division, Public Services and Health Care Division, Solid Waste and Recycling Division, Tankhaul Division, Warehouse Division","1055 Spring Street Wyomissing PA , 19610",40.339896,-75.967075,2026-02-03T08:59:28.293869
431,Teamsters LU No 431,Fresno,CA,93728,(559) 486-5410,teamsters431@sbcglobal.net,,Justin Scott,President,"Brewery, Bakery, & Soft Drink, Building Material and Construction Trade Division, Food Processing Division, Freight Division, Industrial Trades Division, Package Division, Public Services and Health Care Division, Solid Waste and Recycling Division, Tankhaul Division, Warehouse Division","1140 W. Olive Fresno CA , 93728",36.757903,-119.825146,2026-02-03T08:59:28.293871
436,Teamsters LU No 436,Valley View,OH,44125,(216) 328-1833,,https://www.teamsters436.com,Dennis M. Kashi,President,"Building Material and Construction Trade Division, Convention, Trade Show & Casino Division, Food Processing Division, Industrial Trades Division, Public Services and Health Care Division, Solid Waste and Recycling Division, Warehouse Division","6051 Carey Drive Valley View OH , 44125",41.397998,-81.612539,2026-02-03T08:59:28.293874
439,Teamsters LU No 439,Stockton,CA,95205,(209) 948-9592,,https://www.teamsters439.com,Sal Lomeli,Secretary-Treasurer,"Brewery, Bakery, & Soft Drink, Building Material and Construction Trade Division, Food Processing Division, Freight Division, Package Division, Passenger Transportation, Public Services and Health Care Division, Solid Waste and Recycling Division, Tankhaul Division, Warehouse Division","1531 E Fremont Street Stockton CA , 95205",37.961305,-121.272029,2026-02-03T08:59:28.293876
443,Teamsters LU No 443,New Haven,CT,06511,(203) 624-5185,tlocal443@msn.com,https://www.teamsterslocal443.com,Salvatore J. Abate,Secretary-Treasurer,"Brewery, Bakery, & Soft Drink, Building Material and Construction Trade Division, Food Processing Division, Freight Division, Industrial Trades Division, Package Division, Passenger Transportation, Public Services and Health Care Division, Solid Waste and Recycling Division, Tankhaul Division","200 Wallace Street New Haven CT , 06511",41.309972,-72.911525,2026-02-03T08:59:28.293878
445,Teamsters LU No 445,Rock Tavern,NY,12575,(845) 564-5297,local445@hvc.rr.com,https://www.teamsterslocal445.org,Daniel Maldonado,Secretary-Treasurer,"Brewery, Bakery, & Soft Drink, Building Material and Construction Trade Division, Convention, Trade Show & Casino Division, Freight Division, Industrial Trades Division, Passenger Transportation, Public Services and Health Care Division, Tankhaul Division, Warehouse Division","15 Stone Castle Road Rock Tavern NY , 12575",41.529249,-74.134533,2026-02-03T08:59:28.293881
449,Teamsters LU No 449,Buffalo,NY,14206,(716) 874-2200,teamsterslocal449@gmail.com,https://www.teamsterslocal449.org,Jeffrey S. Brylski,Secretary-Treasurer,"Brewery, Bakery, & Soft Drink, Building Material and Construction Trade Division, Freight Division, Industrial Trades Division, Package Division, Passenger Transportation, Public Services and Health Care Division, Solid Waste and Recycling Division, Tankhaul Division, Warehouse Division","2175 William St Buffalo NY , 14206",42.884029,-78.79046,2026-02-03T08:59:28.293885
453,Teamsters LU No 453,Cumberland,MD,21502,(301) 722-5720,,,,,"Building Material and Construction Trade Division, Food Processing Division, Freight Division, Package Division, Passenger Transportation, Public Services and Health Care Division","200 S. Lee Street Cumberland MD , 21502",39.649005,-78.770489,2026-02-03T08:59:28.293887
455,Teamsters LU No 455,Denver,CO,80212,(303) 458-1600,,https://www.teamsterslocal455.org,Dean E. Modecker,Secretary-Treasurer,"Airline Division, Brewery, Bakery, & Soft Drink, Building Material and Construction Trade Division, Express Division, Food Processing Division, Freight Division, Industrial Trades Division, Package Division, Public Services and Health Care Division, Tankhaul Division, Warehouse Division","10 Lakeside Lane,#3-A Denver CO , 80212",39.782676,-105.058446,2026-02-03T08:59:28.293889
456,Teamsters LU No 456,Elmsford,NY,10523,(914) 592-9500,louispicani@teamsterslocal456.com,,Louis A. Picani,President,"Brewery, Bakery, & Soft Drink, Building Material and Construction Trade Division, Industrial Trades Division, Passenger Transportation, Public Services and Health Care Division, Solid Waste and Recycling Division, Tankhaul Division, Warehouse Division","160 S Central Avenue Elmsford NY , 10523",41.049014,-73.821828,2026-02-03T08:59:28.293892
463,Teamsters LU No 463,Fort Washington,PA,19034,(215) 591-1000,bob@teamsters463.org,,Bob Ryder,Secretary-Treasurer,"Brewery, Bakery, & Soft Drink, Convention, Trade Show & Casino Division, Food Processing Division, Freight Division, Public Services and Health Care Division, Tankhaul Division, Warehouse Division","1375 Virginia Dr,#203 Fort Washington PA , 19034",40.140626,-75.168178,2026-02-03T08:59:28.293894
464,Teamsters LU No 464,Vancouver  BC,CN,V5T 1X3,(604) 876-6464,teamsterslocal464@telus.net,https://www.teamsters464.org,Paul Barton,Secretary-Treasurer,,"490 East Broadway Vancouver  BC CN , V5T 1X3",49.262198,-123.093628,2026-02-03T08:59:28.293896
469,Teamsters LU No 469,Hazlet,NJ,07730,(732) 888-0100,,,Michael L Broderick,President,"Brewery, Bakery, & Soft Drink, Building Material and Construction Trade Division, Convention, Trade Show & Casino Division, Freight Division, Industrial Trades Division, Passenger Transportation, Public Services and Health Care Division, Tankhaul Division, Warehouse Division","3400 Hgwy 35,Ex Plz#7 Hazlet NJ , 07730",40.423167,-74.194569,2026-02-03T08:59:28.293898
471,Teamsters LU No 471,Minneapolis,MN,55414,(612) 331-1931,,,Lyndon B. Johnson,Secretary-Treasurer,"Brewery, Bakery, & Soft Drink, Food Processing Division, Warehouse Division","3001 Univ Ave S E Minneapolis MN , 55414",44.979513,-93.227354,2026-02-03T08:59:28.293900
480,Teamsters LU No 480,Nashville,TN,37224,(615) 361-4900,,https://www.teamsterslocal480.org,Len Hughes,President,"Freight Division, Industrial Trades Division, Package Division, Public Services and Health Care Division","Post Office Bx 100230 Nashville TN , 37224",36.116401,-86.861592,2026-02-03T08:59:28.293902
481,Teamsters LU No 481,San Diego,CA,92116,(619) 282-2187,local481@teamsters481.org,https://www.teamsters481.org,Eric Borgardt,Secretary-Treasurer,"Building Material and Construction Trade Division, Industrial Trades Division, Package Division, Passenger Transportation, Public Services and Health Care Division","2840 Adams Ave, Rm 202 San Diego CA , 92116",32.763175,-117.132938,2026-02-03T08:59:28.293904
491,Teamsters LU No 491,Uniontown,PA,15401,(724) 438-0512,vdragone@teamsters491.com,,"Vito Dragone, Jr.",Secretary-Treasurer,"Brewery, Bakery, & Soft Drink, Building Material and Construction Trade Division, Food Processing Division, Freight Division, Package Division, Passenger Transportation, Public Services and Health Care Division, Tankhaul Division","112 Morgantown Street Uniontown PA , 15401",39.898006,-79.729349,2026-02-03T08:59:28.293908
492,Teamsters LU No 492,Albuquerque,NM,87109,(505) 344-1925,,https://www.teamsters492.org,Andrew L. Palmer,Secretary-Treasurer,"Airline Division, Brewery, Bakery, & Soft Drink, Building Material and Construction Trade Division, Food Processing Division, Freight Division, Industrial Trades Division, Motion Picture and Theratical Trade Division, Package Division, Public Services and Health Care Division, Warehouse Division","4269 Balloon Pk Rd Ne Albuquerque NM , 87109",35.147567,-106.595695,2026-02-03T08:59:28.293910
493,Teamsters LU No 493,Uncasville,CT,06382,(860) 848-9201,info@teamsters493.org,https//:www.teamsters493.org,Bevan J Sweet,Secretary-Treasurer,"Brewery, Bakery, & Soft Drink, Building Material and Construction Trade Division, Freight Division, Industrial Trades Division, Package Division, Passenger Transportation, Public Services and Health Care Division, Warehouse Division","Post Office Box 485 Uncasville CT , 06382",41.43454,-72.1098,2026-02-03T08:59:28.293912
495,Teamsters LU No 495,West Covina,CA,91791,(626) 915-4954,office@teamsters495.org,https://www.teamsters495.org,Robert M. Lennox,Secretary-Treasurer,"Brewery, Bakery, & Soft Drink, Building Material and Construction Trade Division, Convention, Trade Show & Casino Division, Food Processing Division, Freight Division, Industrial Trades Division, Package Division, Public Services and Health Care Division, Solid Waste and Recycling Division, Warehouse Division","225 N Barranca 4th Fl West Covina CA , 91791",34.074198,-117.881898,2026-02-03T08:59:28.293914
500,Teamsters LU No 500,Philadelphia,PA,19134,(215) 291-9540,local500@teamsterslocal500.com,,Douglas S. Edwards,President,"Brewery, Bakery, & Soft Drink, Building Material and Construction Trade Division, Convention, Trade Show & Casino Division, Express Division, Food Processing Division, Freight Division, Industrial Trades Division, Package Division, Public Services and Health Care Division, Warehouse Division","3460 N.Delaware,#301 Philadelphia PA , 19134",39.979031,-75.09488,2026-02-03T08:59:28.293917
502,Teamsters LU No 502,Philadelphia,PA,19123,(215) 236-7222,casapresident502@gmail.com,https://www.local502casa.org,Dr. Robin Cooper,President,Public Services and Health Care Division,"855 N Broad Street Philadelphia PA , 19123",39.969346,-75.159763,2026-02-03T08:59:28.293920
507,Teamsters LU No 507,Cleveland,OH,44125,(216) 328-0111,office@teamsterslocal507.com,https://www.teamsterslocal507.com,Daniel Chavez,Secretary-Treasurer,"Airline Division, Building Material and Construction Trade Division, Convention, Trade Show & Casino Division, Industrial Trades Division, Public Services and Health Care Division, Tankhaul Division, Warehouse Division","5425 Warner Rd,Unit#7 Cleveland OH , 44125",41.416039,-81.635843,2026-02-03T08:59:28.293923
509,Teamsters LU No 509,West Columbia,SC,29172,(803) 796-6172,team509@bellsouth.net,http://www.teamsterslocal509.org/,Brian Clardy,President,"Brewery, Bakery, & Soft Drink, Building Material and Construction Trade Division, Food Processing Division, Freight Division, Industrial Trades Division, Motion Picture and Theratical Trade Division, Package Division, Passenger Transportation, Tankhaul Division","2604 Fish Hatchery Rd West Columbia SC , 29172",33.921868,-81.092621,2026-02-03T08:59:28.293925
512,Teamsters LU No 512,Jacksonville,FL,32254,(904) 786-7649,,https://www.teamsterslocal512.org,Rebecca Cardona,President,"Airline Division, Brewery, Bakery, & Soft Drink, Freight Division, Industrial Trades Division, Package Division, Passenger Transportation, Public Services and Health Care Division, Warehouse Division","1210 Lane Avenue, N. Jacksonville FL , 32254",30.339033,-81.752697,2026-02-03T08:59:28.293927
516,Teamsters LU No 516,Muskogee,OK,74403,(918) 683-6587,Teamsters516@gmail.com,,Kelly Swon,Secretary-Treasurer,Package Division,"1212 East Okmulgee Muskogee OK , 74403",35.742769,-95.355023,2026-02-03T08:59:28.293929
517,Teamsters LU No 517,Visalia,CA,93291,(559) 627-9993,,https://www.teamsterslocal517.com,Ronald Culbertson,Secretary-Treasurer,"Food Processing Division, Freight Division, Passenger Transportation, Public Services and Health Care Division, Warehouse Division","512 West Oak Avenue Visalia CA , 93291",36.332209,-119.297338,2026-02-03T08:59:28.293932
519,Teamsters LU No 519,Knoxville,TN,37917,(865) 546-8373,teamsterslocal519@comcast.net,https://www.teamsterslocal519.org,Wes Trotterchaud,President,"Brewery, Bakery, & Soft Drink, Building Material and Construction Trade Division, Food Processing Division, Freight Division, Industrial Trades Division, Package Division, Public Services and Health Care Division","2306 Montclair Ave Knoxville TN , 37917",36.011728,-83.921746,2026-02-03T08:59:28.293935
522,Teamsters LU No 522,Rahway,NJ,07065,(732) 388-6047,local522@ibtlocal522.com,,James D. Kane,Secretary-Treasurer,"Building Material and Construction Trade Division, Convention, Trade Show & Casino Division, Industrial Trades Division, Solid Waste and Recycling Division, Warehouse Division","1308 Pierce Street Rahway NJ , 07065",40.604771,-74.276235,2026-02-03T08:59:28.293937
525,Teamsters LU No 525,Alton,IL,62002,(618) 462-9706,,https://www.teamsterslocal525.org,Brett Wessel,Secretary-Treasurer,"Brewery, Bakery, & Soft Drink, Building Material and Construction Trade Division, Convention, Trade Show & Casino Division, Food Processing Division, Freight Division, Industrial Trades Division, Passenger Transportation, Public Services and Health Care Division, Solid Waste and Recycling Division, Tankhaul Division, Warehouse Division","830 East Broadway Alton IL , 62002",38.889093,-90.17321,2026-02-03T08:59:28.293940
528,Teamsters LU No 528,Jonesboro,GA,30236,(770) 681-0819,info@local528.com,https://www.local528.com,,,"Brewery, Bakery, & Soft Drink, Building Material and Construction Trade Division, Food Processing Division, Freight Division, Industrial Trades Division, Package Division, Passenger Transportation, Tankhaul Division, Warehouse Division","407 Arrowhead Boulevard Jonesboro GA , 30236",33.574699,-84.377777,2026-02-03T08:59:28.293942
529,Teamsters LU No 529,Elmira,NY,14904,(607) 733-6519,teamsterslocal529@outlook.com,,Richard  Dexter,President,"Building Material and Construction Trade Division, Freight Division, Industrial Trades Division, Package Division, Passenger Transportation, Public Services and Health Care Division, Tankhaul Division, Warehouse Division","129 E Chemung Place Elmira NY , 14904",42.0857346,-76.8012259,2026-02-03T08:59:28.293945
533,Teamsters LU No 533,Reno,NV,89512,(775) 348-6060,Teamster533@sbcglobal.net,https://www.teamsters533.org,Gary W. Watson,Secretary-Treasurer,"Brewery, Bakery, & Soft Drink, Building Material and Construction Trade Division, Food Processing Division, Freight Division, Package Division, Passenger Transportation, Public Services and Health Care Division, Solid Waste and Recycling Division, Warehouse Division","1190 Selmi Drive # 100 Reno NV , 89512",39.558053,-119.798882,2026-02-03T08:59:28.293947
538,Teamsters LU No 538,Worthington,PA,16262,(724) 297-3427,,,Betty Rose Fischer,Secretary-Treasurer,"Building Material and Construction Trade Division, Freight Division, Industrial Trades Division, Package Division, Public Services and Health Care Division, Warehouse Division","PO Box 128 204 Cnty Line Rd Worthington PA , 16262",40.837764,-79.629766,2026-02-03T08:59:28.293949
541,Teamsters LU No 541,Oak Grove,MO,64075,(816) 921-1700,mkeeran@teamsterslocal541.org,,Mike Keeran,President,"Building Material and Construction Trade Division, Freight Division, Industrial Trades Division, Tankhaul Division, Warehouse Division","406 NW 1st Street Oak Grove MO , 64075",39.043016,-94.52465,2026-02-03T08:59:28.293952
542,Teamsters LU No 542,San Diego,CA,92120-4173,(619) 582-0542,info@teamsters542.org,https://www.teamsters542.org,Jaime Vasquez,Secretary-Treasurer,"Brewery, Bakery, & Soft Drink, Convention, Trade Show & Casino Division, Food Processing Division, Freight Division, Industrial Trades Division, Motion Picture and Theratical Trade Division, Package Division, Passenger Transportation, Public Services and Health Care Division, Solid Waste and Recycling Division, Tankhaul Division, Warehouse Division","4666 Mission Gorge Pl San Diego CA , 92120-4173",32.78319,-117.092451,2026-02-03T08:59:28.293955
553,Teamsters LU No 553,New York,NY,10011,(212) 929-6828,,,Demos P. Demopoulos,Secretary-Treasurer,"Airline Division, Brewery, Bakery, & Soft Drink, Food Processing Division, Freight Division, Industrial Trades Division, Passenger Transportation, Public Services and Health Care Division, Solid Waste and Recycling Division, Tankhaul Division, Warehouse Division","265 W 14th St, Rm 305 New York NY , 10011",40.739467,-74.001016,2026-02-03T08:59:28.293959
554,Teamsters LU No 554,Omaha,NE,68127,(402) 331-0550,davelyn@local554.org,https://www.local554.org,Daniel W. Avelyn,Secretary-Treasurer,"Airline Division, Brewery, Bakery, & Soft Drink, Building Material and Construction Trade Division, Convention, Trade Show & Casino Division, Food Processing Division, Freight Division, Industrial Trades Division, Package Division, Passenger Transportation, Public Services and Health Care Division, Warehouse Division","4349 South 90 Street Omaha NE , 68127",41.215776,-96.052126,2026-02-03T08:59:28.293961
555,Teamsters LU No 555,"Montreal, Quebec",Quebec,H2B 1H7,(514) 391-9131,info@teamsters555.org,,Denis Fournier,President,Graphics Communications,"1831 Fleury Est Montreal, Quebec Quebec , H2B 1H7",45.5741,-73.6507,2026-02-03T08:59:28.293963
560,Teamsters LU No 560,Elmwood,NJ,07407,(201) 864-0051,,,Joseph Dipalma,President,"Airline Division, Brewery, Bakery, & Soft Drink, Building Material and Construction Trade Division, Convention, Trade Show & Casino Division, Food Processing Division, Freight Division, Industrial Trades Division, Package Division, Passenger Transportation, Public Services and Health Care Division, Solid Waste and Recycling Division, Tankhaul Division, Warehouse Division","303 Molnar Drive 3rd Floor Elmwood NJ , 07407",40.758714,-74.043915,2026-02-03T08:59:28.293966
568,Teamsters LU No 568,Shreveport,LA,71137,(318) 222-4681,teamsters568@aol.com,https://www.teamsters568.com,Doug Beckham,Secretary-Treasurer,"Brewery, Bakery, & Soft Drink, Freight Division, Industrial Trades Division, Package Division, Tankhaul Division","Post Office Box 7805 Shreveport LA , 71137",32.607556,-93.75256,2026-02-03T08:59:28.293968
570,Teamsters LU No 570,Baltimore,MD,21224,(410) 284-5081,team570@comcast.net,https://www.team570.org,Sean Cedenio,Secretary-Treasurer,"Brewery, Bakery, & Soft Drink, Building Material and Construction Trade Division, Food Processing Division, Freight Division, Industrial Trades Division, Passenger Transportation, Public Services and Health Care Division, Solid Waste and Recycling Division, Tankhaul Division, Warehouse Division","6910 Eastern Avenue Baltimore MD , 21224",39.288661,-76.529052,2026-02-03T08:59:28.293970
572,Teamsters LU No 572,Carson,CA,90746,(310) 515-0601,,https://www.teamsters572.org,Lourdes Garcia,Secretary-Treasurer,"Brewery, Bakery, & Soft Drink, Building Material and Construction Trade Division, Convention, Trade Show & Casino Division, Industrial Trades Division, Package Division, Passenger Transportation, Public Services and Health Care Division, Solid Waste and Recycling Division, Warehouse Division","450 E Carson Plaza Dr Carson CA , 90746",33.847165,-118.266785,2026-02-03T08:59:28.293972
577,Teamsters LU No 577,Amarillo,TX,79107,(806) 373-4349,,,Alfonso C. Brito,President,Package Division,"201 N. Johson Amarillo TX , 79107",35.230592,-101.802502,2026-02-03T08:59:28.293974
585,Teamsters LU No 585,Washington,PA,15301,(724) 225-6465,teamsters585@comcast.net,,Harold Close,Secretary-Treasurer,"Brewery, Bakery, & Soft Drink, Building Material and Construction Trade Division, Food Processing Division, Package Division, Public Services and Health Care Division, Solid Waste and Recycling Division, Tankhaul Division, Warehouse Division","457 Tyler Avenue Washington PA , 15301",40.184415,-80.2553,2026-02-03T08:59:28.293977
589,Teamsters LU No 589,Silverdale,WA,98383,(360) 452-3388,,https://www.teamsters589.org,Robert Driskell,Secretary-Treasurer,"Brewery, Bakery, & Soft Drink, Building Material and Construction Trade Division, Freight Division, Package Division, Public Services and Health Care Division, Solid Waste and Recycling Division","11871 Silverdale Way, NW Suite 111 Silverdale WA , 98383",48.055733,-123.91784,2026-02-03T08:59:28.293980
592,Teamsters LU No 592,Richmond,VA,23222,(804) 329-9530,teamsterslocal592@comcast.net,https://www.local592.org,James R. Smith,President,"Brewery, Bakery, & Soft Drink, Building Material and Construction Trade Division, Food Processing Division, Freight Division, Industrial Trades Division, Package Division, Public Services and Health Care Division, Tankhaul Division, Warehouse Division","3705 Carolina Avenue Richmond VA , 23222",37.581525,-77.413624,2026-02-03T08:59:28.293983
597,Teamsters LU No 597,Williston,VT,05495,(802) 476-4159,Tony@teamsterslocal597.net,https://www.teamsterslocal597.net,Tony St. Hilaire,Secretary-Treasurer,"Food Processing Division, Freight Division, Industrial Trades Division, Package Division, Passenger Transportation, Public Services and Health Care Division","202 Commerce Street Williston VT , 05495",44.175744,-72.50247,2026-02-03T08:59:28.293985
600,Teamsters LU No 600,Maryland Heights,MO,63043,(314) 388-4400,,https://www.teamsters600.org,John Kelting,President,"Brewery, Bakery, & Soft Drink, Building Material and Construction Trade Division, Convention, Trade Show & Casino Division, Express Division, Food Processing Division, Freight Division, Industrial Trades Division, Package Division, Passenger Transportation, Public Services and Health Care Division, Warehouse Division","161 Weldon Parkway Maryland Heights MO , 63043",38.713596,-90.442541,2026-02-03T08:59:28.293988
604,Teamsters LU No 604,St Louis,MO,63110,(314) 534-2301,,,Daniel Shott,Secretary-Treasurer,,"5730 Elizabeth Avenue St Louis MO , 63110",38.609029,-90.198952,2026-02-03T08:59:28.293990
610,Teamsters LU No 610,Maryland Heights,MO,63043,(314) 209-0018,,https://www.teamsterslocal610.org,Daniel Thacker,Secretary-Treasurer,"Convention, Trade Show & Casino Division, Food Processing Division, Freight Division, Passenger Transportation, Public Services and Health Care Division, Solid Waste and Recycling Division, Tankhaul Division, Warehouse Division","11472 Schenk Drive, Suite E Maryland Heights MO , 63043",38.709686,-90.420056,2026-02-03T08:59:28.293992
612,Teamsters LU No 612,Birmingham,AL,35219,(205) 945-9337,admin@teamsters612.org,,Steven Parker,President,"Brewery, Bakery, & Soft Drink, Food Processing Division, Freight Division, Industrial Trades Division, Package Division, Passenger Transportation, Warehouse Division","Post Office Bx 190008 Birmingham AL , 35219",33.544622,-86.929208,2026-02-03T08:59:28.293995
614,Teamsters LU No 614,Pontiac,MI,48342,(248) 334-4573,,,Dennis Krogstad,President,"Building Material and Construction Trade Division, Convention, Trade Show & Casino Division, Freight Division, Industrial Trades Division, Passenger Transportation, Public Services and Health Care Division, Solid Waste and Recycling Division, Warehouse Division","75 North Saginaw Street Pontiac MI , 48342",42.639117,-83.293253,2026-02-03T08:59:28.293997
618,Teamsters LU No 618,St. Louis,MO,63114,(314) 426-4618,ibt618@sbcglobal.net,,Derek Kropp,Secretary-Treasurer,"Airline Division, Brewery, Bakery, & Soft Drink, Building Material and Construction Trade Division, Freight Division, Industrial Trades Division, Public Services and Health Care Division, Tankhaul Division, Warehouse Division","9040 A Lackland Road St. Louis MO , 63114",38.69936,-90.356882,2026-02-03T08:59:28.293999
623,Teamsters LU No 623,Philadelphia,PA,19137,(215) 289-0580,info@teamsterslocal623.org,https://www.teamsterslocal623.org,"Richard Hooker, Jr.",Secretary-Treasurer,"Package Division, Passenger Transportation, Warehouse Division","4369 Richmond Street Philadelphia PA , 19137",39.996174,-75.074856,2026-02-03T08:59:28.294003
627,Teamsters LU No 627,Peoria,IL,61614,(309) 689-9090,,,Gregory A. Wheet,President,"Brewery, Bakery, & Soft Drink, Building Material and Construction Trade Division, Convention, Trade Show & Casino Division, Food Processing Division, Freight Division, Industrial Trades Division, Passenger Transportation, Public Services and Health Care Division, Solid Waste and Recycling Division, Tankhaul Division, Warehouse Division","7101 N. Allen Road Peoria IL , 61614",40.774016,-89.632169,2026-02-03T08:59:28.294006
628,Teamsters LU No 628,Philadelphia,PA,19134,(215) 923-9540,local628@verizon.net,,John Dagle,President,"Freight Division, Industrial Trades Division, Public Services and Health Care Division, Solid Waste and Recycling Division, Warehouse Division","3460 N. Delaware Ave # 104 Philadelphia PA , 19134",39.979031,-75.09488,2026-02-03T08:59:28.294008
630,Teamsters LU No 630,Los Angeles,CA,90021,(213) 627-2178,,https://www.teamsters630.org,Lou Villalvazo,Secretary-Treasurer,"Brewery, Bakery, & Soft Drink, Food Processing Division, Industrial Trades Division, Warehouse Division","750 S. Stanford Ave Los Angeles CA , 90021",34.03787,-118.2454,2026-02-03T08:59:28.294011
631,Teamsters LU No 631,Las Vegas,NV,89110,(702) 453-6310,tommyb@teamsters631.com,http://www.teamsterslocal631.org/,Tommy Blitsch,Secretary-Treasurer,"Building Material and Construction Trade Division, Convention, Trade Show & Casino Division, Food Processing Division, Freight Division, Industrial Trades Division, Motion Picture and Theratical Trade Division, Package Division, Passenger Transportation, Public Services and Health Care Division, Solid Waste and Recycling Division","700 N. Lamb Blvd Las Vegas NV , 89110",36.175782,-115.081062,2026-02-03T08:59:28.294013
633,Teamsters LU No 633,Manchester,NH,03105,(603) 625-9731,padellaro@teamsters633.com,https://www.teamsters633.com,Jeffrey Padellaro,Secretary-Treasurer,"Brewery, Bakery, & Soft Drink, Building Material and Construction Trade Division, Freight Division, Industrial Trades Division, Package Division, Passenger Transportation, Public Services and Health Care Division, Solid Waste and Recycling Division, Tankhaul Division, Warehouse Division","Post Office Box 870 Manchester NH , 03105",42.952124,-71.653939,2026-02-03T08:59:28.294015
636,Teamsters LU No 636,McKees Rocks,PA,15136,(412) 331-3208,,,Al Waltz,Secretary-Treasurer,"Industrial Trades Division, Public Services and Health Care Division, Warehouse Division","536 Chartiers Avenue McKees Rocks PA , 15136",40.465326,-80.059952,2026-02-03T08:59:28.294017
637,Teamsters LU No 637,Zanesville,OH,43701,(740) 453-2102,local637@teamsters637.org,https://www.teamsters637.org,Michael Dickerson,President,"Brewery, Bakery, & Soft Drink, Building Material and Construction Trade Division, Package Division, Public Services and Health Care Division, Solid Waste and Recycling Division, Tankhaul Division","100 Timber Run Road Zanesville OH , 43701",39.950836,-82.113755,2026-02-03T08:59:28.294020
638,Teamsters LU No 638,Minneapolis,MN,55414,(612) 379-1533,info@teamsterslocal638.org,https://www.teamsters638.com/,Scott Lecy,Secretary-Treasurer,"Brewery, Bakery, & Soft Drink, Building Material and Construction Trade Division, Convention, Trade Show & Casino Division, Food Processing Division, Freight Division, Industrial Trades Division, Package Division, Passenger Transportation, Public Services and Health Care Division, Tankhaul Division, Warehouse Division","3001 Univ Ave S E Minneapolis MN , 55414",44.979513,-93.227354,2026-02-03T08:59:28.294022
639,Teamsters LU No 639,Washington,DC,20018,(202) 636-8170,tlocal639@aol.com,https://www.teamsters639.com,William Davis,President,"Brewery, Bakery, & Soft Drink, Building Material and Construction Trade Division, Convention, Trade Show & Casino Division, Food Processing Division, Freight Division, Industrial Trades Division, Motion Picture and Theratical Trade Division, Package Division, Passenger Transportation, Public Services and Health Care Division, Solid Waste and Recycling Division, Tankhaul Division, Warehouse Division","3100 Ames Place N.E. Washington DC , 20018",38.920715,-76.963369,2026-02-03T08:59:28.294025
641,Teamsters LU No 641,Union,NJ,07083,(908) 686-8898,ibtlocal641@aol.com,https://www.teamsterslocal641.com,James P. Kilkenny,President,"Brewery, Bakery, & Soft Drink, Building Material and Construction Trade Division, Freight Division, Industrial Trades Division, Package Division, Public Services and Health Care Division, Solid Waste and Recycling Division, Tankhaul Division, Warehouse Division","714 Rahway Avenue Union NJ , 07083",40.695529,-74.295223,2026-02-03T08:59:28.294027
647,Teamsters LU No 647,"Mississauga, Ont",CN,L5T 2E1,(905) 760-0209,teamsterslocal647@bellnet.ca,https://www.teamsterslocal647.ca,Martin Cerqua,President,"Brewery, Bakery, & Soft Drink, Food Processing Division, Industrial Trades Division, Warehouse Division","6200 Dixie Road, Unit 201 Mississauga, Ont CN , L5T 2E1",43.658527,-79.652873,2026-02-03T08:59:28.294031
651,Teamsters LU No 651,Lexington,KY,40509-9418,(859) 263-5115,admin@teamsters651.org,,James Brant,President,"Brewery, Bakery, & Soft Drink, Freight Division, Industrial Trades Division, Package Division, Warehouse Division","100 Blue Sky Parkway Lexington KY , 40509-9418",37.959918,-84.382482,2026-02-03T08:59:28.294033
653,Teamsters LU No 653,South Easton,MA,02375,(508) 230-7140,union@tu653.com,https://www.teamsterslocal653.org,"Michael W. Clark, Jr.",Secretary-Treasurer,"Brewery, Bakery, & Soft Drink, Building Material and Construction Trade Division, Food Processing Division, Freight Division, Industrial Trades Division, Package Division, Passenger Transportation, Public Services and Health Care Division, Tankhaul Division, Warehouse Division","4-A Hampden Drive South Easton MA , 02375",42.048047,-71.072938,2026-02-03T08:59:28.294035
657,Teamsters LU No 657,San Antonio,TX,78239,(210) 590-2013,info@teamsters657.com,https://www.teamsters657.com,Frank Perkins,President,"Brewery, Bakery, & Soft Drink, Building Material and Construction Trade Division, Freight Division, Industrial Trades Division, Motion Picture and Theratical Trade Division, Package Division, Passenger Transportation, Public Services and Health Care Division, Tankhaul Division, Warehouse Division","8214 Roughrider Dr San Antonio TX , 78239",29.511222,-98.388597,2026-02-03T08:59:28.294038
662,Teamsters LU No 662,Green Bay,WI,54302,(715) 693-4536,eauclaire@teamsters662.com,https://www.teamsters662.com,Tom Strickland,Secretary-Treasurer,"Brewery, Bakery, & Soft Drink, Building Material and Construction Trade Division, Food Processing Division, Freight Division, Industrial Trades Division, Package Division, Public Services and Health Care Division, Solid Waste and Recycling Division, Tankhaul Division, Warehouse Division","1546 Manin Street Green Bay WI , 54302",44.786917,-89.672268,2026-02-03T08:59:28.294041
665,Teamsters LU No 665,San Francisco,CA,94134,(415) 347-7406,memberservices@teamsters665.org,https://www.teamsters665.org/,Anthony Delorio,Secretary-Treasurer,"Brewery, Bakery, & Soft Drink, Building Material and Construction Trade Division, Convention, Trade Show & Casino Division, Food Processing Division, Freight Division, Industrial Trades Division, Package Division, Passenger Transportation, Public Services and Health Care Division, Solid Waste and Recycling Division, Tankhaul Division, Warehouse Division","150 Executive Park Boulevard Suite 4400 San Francisco CA , 94134",37.792303,-122.423132,2026-02-03T08:59:28.294044
667,Teamsters LU No 667,Memphis,TN,38116,(901) 396-5331,,,"James E. Jones, III",President,"Brewery, Bakery, & Soft Drink, Building Material and Construction Trade Division, Convention, Trade Show & Casino Division, Food Processing Division, Freight Division, Industrial Trades Division, Package Division, Passenger Transportation, Public Services and Health Care Division, Solid Waste and Recycling Division, Tankhaul Division, Warehouse Division","796 East Brooks Road Memphis TN , 38116",35.062478,-90.037499,2026-02-03T08:59:28.294046
670,Teamsters LU No 670,Salem,OR,97302,(503) 378-1444,info@teamster670.org,https://www.teamster670.org,Michael Beranbaum,Secretary-Treasurer,"Brewery, Bakery, & Soft Drink, Building Material and Construction Trade Division, Food Processing Division, Freight Division, Package Division, Public Services and Health Care Division, Solid Waste and Recycling Division, Warehouse Division","Post Office Box 3048 Salem OR , 97302",44.890486,-123.082192,2026-02-03T08:59:28.294048
671,Teamsters LU No 671,Bloomfield,CT,06002,(860) 242-3200,,https://www.teamsters671.com,Anthony Lepore,Secretary-Treasurer,"Brewery, Bakery, & Soft Drink, Building Material and Construction Trade Division, Convention, Trade Show & Casino Division, Express Division, Food Processing Division, Freight Division, Industrial Trades Division, Package Division, Passenger Transportation, Public Services and Health Care Division, Tankhaul Division, Warehouse Division","22 Britton Drive Bloomfield CT , 06002",41.809877,-72.701883,2026-02-03T08:59:28.294051
673,Teamsters LU No 673,West Chicago,IL,60185,(630) 231-6660,tmail@teamsterslocal673.net,https://www.teamsterslocal673.com,Timothy Custer,Secretary-Treasurer,"Brewery, Bakery, & Soft Drink, Building Material and Construction Trade Division, Convention, Trade Show & Casino Division, Food Processing Division, Freight Division, Industrial Trades Division, Passenger Transportation, Public Services and Health Care Division, Solid Waste and Recycling Division, Tankhaul Division, Warehouse Division","1050 W. Roosevelt Rd West Chicago IL , 60185",41.871468,-88.224197,2026-02-03T08:59:28.294053
676,Teamsters LU No 676,Collingswood,NJ,08108,(856) 964-2101,hwwells@teamsters676.com,https://www.ibtlocal676.org,Howard W. Wells,President,"Brewery, Bakery, & Soft Drink, Building Material and Construction Trade Division, Convention, Trade Show & Casino Division, Food Processing Division, Freight Division, Industrial Trades Division, Package Division, Passenger Transportation, Public Services and Health Care Division, Solid Waste and Recycling Division, Tankhaul Division, Warehouse Division","101 Crescent Blvd Collingswood NJ , 08108",39.920587,-75.088048,2026-02-03T08:59:28.294056
682,Teamsters LU No 682,St. Louis,MO,63110,(314) 647-8350,,https://www.teamsterslocal682.com,Matthew Steward,President,"Brewery, Bakery, & Soft Drink, Building Material and Construction Trade Division, Food Processing Division, Freight Division, Industrial Trades Division, Package Division, Public Services and Health Care Division, Solid Waste and Recycling Division, Tankhaul Division, Warehouse Division","5730 Elizabeth Avenue St. Louis MO , 63110",38.614467,-90.284161,2026-02-03T08:59:28.294058
683,Teamsters LU No 683,El Cajon,CA,92021,(619) 232-7903,L.Fletcher@TEAMSTERS683.COM,,Edgar Molina,Secretary-Treasurer,"Brewery, Bakery, & Soft Drink, Building Material and Construction Trade Division, Food Processing Division, Industrial Trades Division, Passenger Transportation, Solid Waste and Recycling Division, Warehouse Division","1333 E Madison Ave, Ste 200 El Cajon CA , 92021",32.799753,-116.934863,2026-02-03T08:59:28.294060
687,Teamsters LU No 687,Potsdam,NY,13676,(315) 265-6125,,,Brian K. Hammond,President,"Brewery, Bakery, & Soft Drink, Building Material and Construction Trade Division, Food Processing Division, Freight Division, Industrial Trades Division, Package Division, Public Services and Health Care Division","14 Elm Street Potsdam NY , 13676",44.670236,-74.985025,2026-02-03T08:59:28.294062
688,Teamsters LU No 688,St Louis,MO,63134-3718,(314) 513-5800,ctongay@688online.org,https://www.688online.org,Christopher Tongay,Secretary-Treasurer,"Brewery, Bakery, & Soft Drink, Building Material and Construction Trade Division, Food Processing Division, Freight Division, Industrial Trades Division, Package Division, Public Services and Health Care Division, Warehouse Division","4349 Woodson Rd, #200 St Louis MO , 63134-3718",38.728622,-90.358497,2026-02-03T08:59:28.294064
690,Teamsters LU No 690,Spokane,WA,99207,(509) 455-9410,,https://www.teamsterslocal690.org,Larry Kroetch,Secretary-Treasurer,"Airline Division, Brewery, Bakery, & Soft Drink, Building Material and Construction Trade Division, Food Processing Division, Freight Division, Package Division, Passenger Transportation, Public Services and Health Care Division, Solid Waste and Recycling Division, Tankhaul Division, Warehouse Division","1912 N Division, #200 Spokane WA , 99207",47.675343,-117.410742,2026-02-03T08:59:28.294068
696,Teamsters LU No 696,Topeka,KS,66616,(785) 232-3866,mikescribner696@gmail.com,https://www.teamster696.com,Michael Scribner,President,"Building Material and Construction Trade Division, Convention, Trade Show & Casino Division, Freight Division, Industrial Trades Division, Package Division, Passenger Transportation, Public Services and Health Care Division, Warehouse Division","3600 NE Sardou Ave,#2 Topeka KS , 66616",39.078269,-95.63343,2026-02-03T08:59:28.294070
697,Teamsters LU No 697,Wheeling,WV,26003,(304) 232-1940,teamsters697@comcast.net,,Rick E. Bauer,President,"Brewery, Bakery, & Soft Drink, Building Material and Construction Trade Division, Food Processing Division, Industrial Trades Division, Package Division, Public Services and Health Care Division, Solid Waste and Recycling Division, Tankhaul Division","901 Market Street Wheeling WV , 26003",40.07182,-80.723314,2026-02-03T08:59:28.294074
700,Teamsters LU No 700,Lombard,IL,60148,(847) 939-9700,,https://www.teamsterslocal700.com,Ramon D. Williams,President,,"1910 S. Highland Avenue Suite 200 Lombard IL , 60148",41.987439,-87.842721,2026-02-03T08:59:28.294076
701,Teamsters LU No 701,North Brunswick,NJ,08902,(732) 297-2701,,https://www.teamsterslocal701.org,Ronald Lake,President,"Brewery, Bakery, & Soft Drink, Building Material and Construction Trade Division, Food Processing Division, Freight Division, Industrial Trades Division, Public Services and Health Care Division, Solid Waste and Recycling Division, Tankhaul Division, Warehouse Division","2003 US Route #130, B North Brunswick NJ , 08902",40.41561,-74.503364,2026-02-03T08:59:28.294079
703,Teamsters LU No 703,Downers Grove,IL,60515,(312) 738-1350,,,Thomas W. Stiede,Secretary-Treasurer,"Brewery, Bakery, & Soft Drink, Building Material and Construction Trade Division, Food Processing Division, Freight Division, Industrial Trades Division, Public Services and Health Care Division, Warehouse Division","1333 Butterfield,#110 Downers Grove IL , 60515",41.831648,-88.019842,2026-02-03T08:59:28.294081
705,Teamsters LU No 705,Chicago,IL,60612,(312) 738-2800,local705@l705ibt.org,,Juan Campos,Secretary-Treasurer,"Building Material and Construction Trade Division, Convention, Trade Show & Casino Division, Express Division, Freight Division, Industrial Trades Division, Package Division, Public Services and Health Care Division, Tankhaul Division, Warehouse Division","325 S. Paulina Street 3rd Floor Chicago IL , 60612",41.877247,-87.668439,2026-02-03T08:59:28.294085
707,Teamsters LU No 707,Hempstead,NY,11550,(516) 560-8509,kmccaffrey@ibt707.com,https//:www.ibt707.com,Kevin McCaffrey,President,"Building Material and Construction Trade Division, Convention, Trade Show & Casino Division, Food Processing Division, Freight Division, Industrial Trades Division, Package Division, Public Services and Health Care Division, Warehouse Division","14 Front Street Hempstead NY , 11550",40.703823,-73.63694,2026-02-03T08:59:28.294087
710,Teamsters LU No 710,Mokena,IL,60448,(773) 254-3200,,https://www.teamsters710.com,Mike Cales,Secretary-Treasurer,"Brewery, Bakery, & Soft Drink, Building Material and Construction Trade Division, Food Processing Division, Freight Division, Industrial Trades Division, Package Division, Public Services and Health Care Division, Solid Waste and Recycling Division, Tankhaul Division, Warehouse Division","9000 W. 187th Street Mokena IL , 60448",41.551333,-87.836204,2026-02-03T08:59:28.294090
722,Teamsters LU No 722,La Salle,IL,61301,(815) 224-2670,local722@comcast.net,https://www.teamsters722.org,Shawn Dowd,President,"Brewery, Bakery, & Soft Drink, Building Material and Construction Trade Division, Food Processing Division, Industrial Trades Division, Passenger Transportation, Public Services and Health Care Division, Warehouse Division","344 Civic Road La Salle IL , 61301",41.367678,-89.097634,2026-02-03T08:59:28.294092
727,Teamsters LU No 727,Park Ridge,IL,60068,(847) 696-7500,,https://www.teamsterslocal727.org,"John Coli, Jr.",Secretary-Treasurer,"Airline Division, Brewery, Bakery, & Soft Drink, Building Material and Construction Trade Division, Convention, Trade Show & Casino Division, Food Processing Division, Freight Division, Industrial Trades Division, Passenger Transportation, Public Services and Health Care Division, Solid Waste and Recycling Division, Tankhaul Division, Warehouse Division","1300 W. Higgins, #111 Park Ridge IL , 60068",41.987439,-87.842721,2026-02-03T08:59:28.294094
728,Teamsters LU No 728,Atlanta,GA,30315,(404) 622-0521,,https://www.teamsterslocal728.org,Matthew Higdon,President,"Brewery, Bakery, & Soft Drink, Food Processing Division, Freight Division, Industrial Trades Division, Motion Picture and Theratical Trade Division, Package Division, Passenger Transportation, Public Services and Health Care Division, Solid Waste and Recycling Division, Warehouse Division","2540 Lakewood Av.S.W. Atlanta GA , 30315",33.694926,-84.402202,2026-02-03T08:59:28.294098
730,Teamsters LU No 730,Washington,DC,20018,(202) 529-3434,,,,,"Brewery, Bakery, & Soft Drink, Public Services and Health Care Division, Warehouse Division","2001 Rhode Isl Ave NE Washington DC , 20018",38.93056,-76.977953,2026-02-03T08:59:28.294100
731,Teamsters LU No 731,Burr Ridge,IL,60527,(630) 887-4100,,https://www.teamsters731.org,John Lisner,President,"Brewery, Bakery, & Soft Drink, Building Material and Construction Trade Division, Freight Division, Industrial Trades Division, Public Services and Health Care Division, Solid Waste and Recycling Division, Warehouse Division","1000 Burr Rdg Pkwy,300 Burr Ridge IL , 60527",41.75457,-87.910343,2026-02-03T08:59:28.294102
734,Teamsters LU No 734,Chicago,IL,60631-1360,(773) 594-2820,,https://www.bakerydrivers-local734.com,Scott C. Kunz,President,,"6643 N. NW Highway Chicago IL , 60631-1360",42.002126,-87.814524,2026-02-03T08:59:28.294105
743,Teamsters LU No 743,Chicago,IL,60632,(773) 254-7460,,https://www.teamsterslocal743.com,Debra Simmon-Peterson,President,"Building Material and Construction Trade Division, Industrial Trades Division, Passenger Transportation, Public Services and Health Care Division, Warehouse Division","4620 South Tripp Chicago IL , 60632",41.809087,-87.7302,2026-02-03T08:59:28.294107
745,Teamsters LU No 745,Dallas,TX,75217,(214) 398-0661,,https://www.teamsterslocal745.org,Brent Taylor,Secretary-Treasurer,"Brewery, Bakery, & Soft Drink, Building Material and Construction Trade Division, Convention, Trade Show & Casino Division, Express Division, Food Processing Division, Freight Division, Industrial Trades Division, Package Division, Passenger Transportation, Public Services and Health Care Division, Rail Conference, Tankhaul Division, Warehouse Division","1007 Jonelle Street Dallas TX , 75217",32.729183,-96.709155,2026-02-03T08:59:28.294109
760,Teamsters LU No 760,Yakima,WA,98902,(509) 452-7194,union@teamsters760.org,https://www.teamsters760.org,Richard A. Salinas,Secretary-Treasurer,"Brewery, Bakery, & Soft Drink, Building Material and Construction Trade Division, Food Processing Division, Freight Division, Industrial Trades Division, Package Division, Public Services and Health Care Division, Warehouse Division","1211 W. Lincoln Ave Yakima WA , 98902",46.603693,-120.522798,2026-02-03T08:59:28.294111
763,Teamsters LU No 763,Tukwila,WA,98168,(206) 441-0763,,https://www.teamsters763.org,Chad L. Baker,Secretary-Treasurer,"Freight Division, Industrial Trades Division, Passenger Transportation, Public Services and Health Care Division, Solid Waste and Recycling Division, Warehouse Division","14675 Interurban S305 Tukwila WA , 98168",47.471817,-122.255166,2026-02-03T08:59:28.294113
764,Teamsters LU No 764,Milton,PA,17847,(570) 742-9667,tysees@teamsters764.com,https://www.teamsters764.com,Ty C. Sees,President,"Brewery, Bakery, & Soft Drink, Building Material and Construction Trade Division, Convention, Trade Show & Casino Division, Food Processing Division, Freight Division, Industrial Trades Division, Package Division, Public Services and Health Care Division, Warehouse Division","450 Beaver Street Milton PA , 17847",41.010894,-76.84709,2026-02-03T08:59:28.294115
767,Teamsters LU No 767,Forest Hill,TX,76119,(817) 429-9863,,https://www.teamsterslocal767.com,David A. Reeves,President,Package Division,"6109 Anglin Drive Forest Hill TX , 76119",32.668162,-97.25092,2026-02-03T08:59:28.294119
769,Teamsters LU No 769,North Miami,FL,33161,(305) 642-6255,office@teamsterslocal769.org,https://www.teamsterslocal769.org,Joshua Zivalich,President,"Airline Division, Brewery, Bakery, & Soft Drink, Building Material and Construction Trade Division, Convention, Trade Show & Casino Division, Express Division, Freight Division, Industrial Trades Division, Motion Picture and Theratical Trade Division, Package Division, Passenger Transportation, Public Services and Health Care Division, Tankhaul Division, Warehouse Division","12365 West Dixie Hwy North Miami FL , 33161",25.888905,-80.188372,2026-02-03T08:59:28.294122
771,Teamsters LU No 771,Lancaster,PA,17602,(717) 397-8267,trwatsonibt771@comcast.net,,Adam L. Crossen,Secretary-Treasurer,"Brewery, Bakery, & Soft Drink, Building Material and Construction Trade Division, Food Processing Division, Freight Division, Industrial Trades Division, Package Division, Public Services and Health Care Division, Tankhaul Division, Warehouse Division","1025 North Duke St. Lancaster PA , 17602",40.053303,-76.306206,2026-02-03T08:59:28.294124
773,Teamsters LU No 773,Whitehall,PA,18052,(610) 434-4451,dhower@teamster773.org,,Dennis C. Hower,President,"Brewery, Bakery, & Soft Drink, Building Material and Construction Trade Division, Food Processing Division, Freight Division, Industrial Trades Division, Package Division, Passenger Transportation, Public Services and Health Care Division, Tankhaul Division, Warehouse Division","3614 Lehigh Street, Suite A Whitehall PA , 18052",40.655375,-75.494354,2026-02-03T08:59:28.294126
776,Teamsters LU No 776,Camp Hill,PA,17011-5214,(717) 233-8766,team776@comcast.net,https://www.teamsterslocal776.com,Edgar H. Thompson,President,"Airline Division, Brewery, Bakery, & Soft Drink, Building Material and Construction Trade Division, Food Processing Division, Freight Division, Industrial Trades Division, Package Division, Passenger Transportation, Public Services and Health Care Division, Warehouse Division","510 S. 31st Street Camp Hill PA , 17011-5214",40.288361,-76.892771,2026-02-03T08:59:28.294128
777,Teamsters LU No 777,Lyons,IL,60534,(708) 777-1081,info@teamsters777.org,https://www.teamsters777.org,James T. Glimco,President,"Building Material and Construction Trade Division, Convention, Trade Show & Casino Division, Food Processing Division, Industrial Trades Division, Passenger Transportation, Public Services and Health Care Division, Warehouse Division","7827 Ogden Avenue Lyons IL , 60534",41.819781,-87.816741,2026-02-03T08:59:28.294130
781,Teamsters LU No 781,Elmhurst,IL,60126,(847) 298-9999,team781@msn.com,https://www.teamsters781.org,Paul J. Stripling,President,"Airline Division, Convention, Trade Show & Casino Division, Food Processing Division, Industrial Trades Division, Passenger Transportation, Tankhaul Division, Warehouse Division","747 Church Rd, Bldg D Elmhurst IL , 60126",41.921964,-87.952434,2026-02-03T08:59:28.294133
783,Teamsters LU No 783,Louisville,KY,40228,(502) 231-9596,teamsters@ibt783.org,,Justin Scharrer,President,"Airline Division, Brewery, Bakery, & Soft Drink, Food Processing Division, Industrial Trades Division, Public Services and Health Care Division, Solid Waste and Recycling Division","7711 Beulah Church Rd Louisville KY , 40228",38.134131,-85.611455,2026-02-03T08:59:28.294135
786,Teamsters LU No 786,Chicago,IL,60607,(312) 666-2750,,https://www.teamsterslocal786.org/,Eddie Rizzo,President,"Building Material and Construction Trade Division, Convention, Trade Show & Casino Division, Industrial Trades Division, Solid Waste and Recycling Division, Warehouse Division","300 S Ashland Ave, #501 Chicago IL , 60607",41.876685,-87.667757,2026-02-03T08:59:28.294137
792,Teamsters LU No 792,Minneapolis,MN,55414,(612) 331-9194,,https://www.teamsterslocal792.org,Kristopher Knight,Secretary-Treasurer,,"3001 Univ Ave S E Minneapolis MN , 55414",44.979513,-93.227354,2026-02-03T08:59:28.294139
795,Teamsters LU No 795,Wichita,KS,67210,(316) 683-2651,local795@sbcglobal.net,,Jesse Castillo,President,"Brewery, Bakery, & Soft Drink, Food Processing Division, Freight Division, Package Division, Passenger Transportation, Public Services and Health Care Division, Tankhaul Division, Warehouse Division","4921 Cessna Drive Wichita KS , 67210",37.648367,-97.279317,2026-02-03T08:59:28.294143
802,Teamsters LU No 802,Deer Park,NY,11729,(516) 378-2110,localno802@aol.com,,James Shanno,President,"Brewery, Bakery, & Soft Drink, Building Material and Construction Trade Division, Food Processing Division, Freight Division, Warehouse Division","2070 Deer Park Avenue Deer Park NY , 11729",40.657457,-73.606915,2026-02-03T08:59:28.294145
804,Teamsters LU No 804,Port Washington,NY,11050,(718) 786-5700,executiveboard@teamsterslocal804.org,https://www.teamsterslocal804.org,Vincent Perrone,President,Package Division,"44 S. Bayles Avenue Suite 300 Port Washington NY , 11050",40.735197,-73.938532,2026-02-03T08:59:28.294147
808,Teamsters LU No 808,Chappaqua,NY,10514,(914) 458-5228,,,Chris Silvera,Secretary-Treasurer,"Building Material and Construction Trade Division, Public Services and Health Care Division, Tankhaul Division","9 Hunts Lane Chappaqua NY , 10514",40.742198,-73.955674,2026-02-03T08:59:28.294149
810,Teamsters LU No 810,Long Island City,NY,11101,(212) 691-4100,local810ibt@gmail.com,https://www.local810.org,Michael C. Smith,President,"Brewery, Bakery, & Soft Drink, Building Material and Construction Trade Division, Food Processing Division, Freight Division, Industrial Trades Division, Public Services and Health Care Division, Solid Waste and Recycling Division, Tankhaul Division, Warehouse Division","45-06 Pearson Street 2nd Floor Long Island City NY , 11101",40.756179,-73.936245,2026-02-03T08:59:28.294152
812,Teamsters LU No 812,Great Neck,NY,11021,(516) 303-1455,lorraine@local812.org,https://www.teamsterslocal812.com,Joseph G. Vitta,President,"Brewery, Bakery, & Soft Drink, Public Services and Health Care Division, Solid Waste and Recycling Division, Tankhaul Division","445 Northern Blvd,#30 Great Neck NY , 11021",40.779706,-73.72255,2026-02-03T08:59:28.294155
813,Teamsters LU No 813,Long Island City,NY,11101,(718) 937-7010,local813@teamsters813.org,https://www.teamsters813.org,Daniel L. Wright,President,"Building Material and Construction Trade Division, Industrial Trades Division, Passenger Transportation, Public Services and Health Care Division, Solid Waste and Recycling Division, Warehouse Division","48-18 Van Dam St Suite 201 Long Island City NY , 11101",40.74051,-73.934621,2026-02-03T08:59:28.294160
814,Teamsters LU No 814,Brooklyn,NY,11201,(718) 609-6407,,https://www.ibt814.com,Walter Taylor,President,,"195 Montague Street, 3rd Fl Brooklyn NY , 11201",40.694119,-73.991394,2026-02-03T08:59:28.294162
817,Teamsters LU No 817,Great Neck,NY,11021,(516) 365-3470,,,Thomas J. O'Donnell,President,,"817 Old Cuttermill Rd Great Neck NY , 11021",40.780546,-73.734484,2026-02-03T08:59:28.294164
822,Teamsters LU No 822,Norfolk,VA,23502,(757) 461-7172,teamsters822@gmail.com,https://www.teamsters822.org,James A. Wright,President,"Brewery, Bakery, & Soft Drink, Food Processing Division, Freight Division, Package Division, Passenger Transportation, Public Services and Health Care Division, Warehouse Division","5718 Bartee Street Norfolk VA , 23502",36.847088,-76.208997,2026-02-03T08:59:28.294166
823,Teamsters LU No 823,Joplin,MO,64801,(417) 623-0640,local823@sbcglobal.net,,Shawn Lashmet,President,"Brewery, Bakery, & Soft Drink, Food Processing Division, Freight Division, Industrial Trades Division, Package Division, Tankhaul Division, Warehouse Division","1601 S Maiden Lane Joplin MO , 64801",37.206219,-94.335453,2026-02-03T08:59:28.294169
830,Teamsters LU No 830,Philadelphia,PA,19154,(215) 671-9850,dgrace@team830.org,https://www.team830.org,Daniel H. Grace,Secretary-Treasurer,"Brewery, Bakery, & Soft Drink, Building Material and Construction Trade Division, Food Processing Division, Freight Division, Industrial Trades Division, Public Services and Health Care Division, Tankhaul Division, Warehouse Division","12298 Townsend Road Philadelphia PA , 19154",40.103639,-74.984354,2026-02-03T08:59:28.294172
831,Teamsters LU No 831,New York,NY,10038,(212) 964-8900,,,Dennis J. Schock,President,,"25 Cliff Street New York NY , 10038",40.70828,-74.005316,2026-02-03T08:59:28.294174
833,Teamsters LU No 833,Jefferson City,MO,65109,(573) 635-7133,teamsters833@earthlink.net,,Matthew Hall,Secretary-Treasurer,"Brewery, Bakery, & Soft Drink, Building Material and Construction Trade Division, Food Processing Division, Freight Division, Package Division, Passenger Transportation, Solid Waste and Recycling Division","3628 W Truman Blvd, Suite B Jefferson City MO , 65109",38.590455,-92.25375,2026-02-03T08:59:28.294177
838,Teamsters LU No 838,Kansas City,MO,64131,(816) 924-3460,local838@yahoo.com,https://www.teamsters838.org,Alexander Waschneck,President,"Brewery, Bakery, & Soft Drink, Industrial Trades Division, Passenger Transportation, Public Services and Health Care Division, Solid Waste and Recycling Division, Warehouse Division","1300 E 104th Street Suite 250 Kansas City MO , 64131",39.043016,-94.52465,2026-02-03T08:59:28.294179
839,Teamsters LU No 839,Pasco,WA,99301,(509) 547-7513,team839_rshjerven@msn.com,https://www.teamsters839.org,Russell Shjerven,Secretary-Treasurer,"Brewery, Bakery, & Soft Drink, Building Material and Construction Trade Division, Food Processing Division, Freight Division, Industrial Trades Division, Package Division, Public Services and Health Care Division, Tankhaul Division, Warehouse Division","1103 W. Sylvester St. Pasco WA , 99301",46.234328,-119.105254,2026-02-03T08:59:28.294182
847,Teamsters LU No 847,"Mississauga, Ont",CN,L4Z 1X1,(905) 502-8895,infor@teamsters847.ca,,Fernanda Santos,President,"Airline Division, Brewery, Bakery, & Soft Drink, Building Material and Construction Trade Division, Convention, Trade Show & Casino Division, Industrial Trades Division, Public Services and Health Care Division, Solid Waste and Recycling Division","216 Matheson Blvd East Mississauga, Ont CN , L4Z 1X1",43.622962,-79.663574,2026-02-03T08:59:28.294184
848,Teamsters LU No 848,Glendora,CA,91740,(626) 732-4700,,,Eric Tate,Secretary-Treasurer,"Brewery, Bakery, & Soft Drink, Building Material and Construction Trade Division, Express Division, Food Processing Division, Freight Division, Industrial Trades Division, Passenger Transportation, Public Services and Health Care Division, Tankhaul Division, Warehouse Division","731 E. Arrow Highway Glendora CA , 91740",34.107151,-117.849851,2026-02-03T08:59:28.294187
853,Teamsters LU No 853,Oakland,CA,94621,(510) 895-8853,connections@teamsters853.org,https://www.teamsters853.org,"Stephen C. Beck, Jr.",Secretary-Treasurer,"Brewery, Bakery, & Soft Drink, Building Material and Construction Trade Division, Convention, Trade Show & Casino Division, Express Division, Food Processing Division, Freight Division, Graphics Communications, Industrial Trades Division, Package Division, Passenger Transportation, Public Services and Health Care Division, School Bus & Transit Workers, Warehouse Division","7750 Pardee Lane Oakland CA , 94621",37.741872,-122.205814,2026-02-03T08:59:28.294189
855,Teamsters LU No 855,St. John's Nwfndlnd,CN,A1C 5N8,(709) 579-5706,email@teamsters855.ca,,Roger Spracklin,President,"Building Material and Construction Trade Division, Food Processing Division, Freight Division, Industrial Trades Division, Package Division, Public Services and Health Care Division, Solid Waste and Recycling Division, Warehouse Division","P. O. Box 1472 Stn'C' St. John's Nwfndlnd CN , A1C 5N8",47.561701,-52.715149,2026-02-03T08:59:28.294191
856,Teamsters LU No 856,San Bruno,CA,94066,(650) 635-0111,teamsters@ibt856.org,https://www.teamsters856.org,Peter Finn,Secretary-Treasurer,"Airline Division, Brewery, Bakery, & Soft Drink, Convention, Trade Show & Casino Division, Express Division, Food Processing Division, Freight Division, Industrial Trades Division, Package Division, Passenger Transportation, Public Services and Health Care Division, Warehouse Division","453 San Mateo Avenue San Bruno CA , 94066",37.623102,-122.411797,2026-02-03T08:59:28.294194
863,Teamsters LU No 863,Mountainside,NJ,07092,(908) 654-6990,,,"Alphonse Rispoli, Jr.",Secretary-Treasurer,"Brewery, Bakery, & Soft Drink, Building Material and Construction Trade Division, Convention, Trade Show & Casino Division, Food Processing Division, Freight Division, Industrial Trades Division, Public Services and Health Care Division, Tankhaul Division, Warehouse Division","209 Summit Road Mountainside NJ , 07092",40.681472,-74.342186,2026-02-03T08:59:28.294196
877,Teamsters LU No 877,Linden,NJ,07036,(908) 925-6707,,,Jeff Sanford,President,Tankhaul Division,"P.O. Box 1805 411A North Wood Ave. Linden NJ , 07036",40.632199,-74.255934,2026-02-03T08:59:28.294199
878,Teamsters LU No 878,Little Rock,AR,72219,(501) 562-2020,teamster878@hotmail.com,https://www.teamsters878.com,Tim Nichols,President,"Brewery, Bakery, & Soft Drink, Building Material and Construction Trade Division, Food Processing Division, Freight Division, Industrial Trades Division, Package Division, Passenger Transportation, Solid Waste and Recycling Division","Post Office Bx 190070 Little Rock AR , 72219",34.751918,-92.392487,2026-02-03T08:59:28.294201
879,Teamsters LU No 879,Stoney Creek Ont,CN,L8E 6A2,(905) 547-3231,info@teamsters879.ca,,John McCann,President,"Brewery, Bakery, & Soft Drink, Building Material and Construction Trade Division, Convention, Trade Show & Casino Division, Food Processing Division, Freight Division, Industrial Trades Division, Package Division, Passenger Transportation, Public Services and Health Care Division, Solid Waste and Recycling Division, Tankhaul Division, Warehouse Division","944 S Service Rd, #201 Stoney Creek Ont CN , L8E 6A2",43.22474,-79.671276,2026-02-03T08:59:28.294203
886,Teamsters LU No 886,Oklahoma City,OK,73107-6136,(405) 947-2333,tritter@teamsterslocal886.com,https://www.teamsterslocal886.com,,,"Airline Division, Brewery, Bakery, & Soft Drink, Building Material and Construction Trade Division, Food Processing Division, Freight Division, Industrial Trades Division, Package Division, Passenger Transportation, Public Services and Health Care Division, Tankhaul Division, Warehouse Division","3528 W. Reno Avenue Oklahoma City OK , 73107-6136",35.463341,-97.579804,2026-02-03T08:59:28.294205
890,Teamsters LU No 890,Salinas,CA,93905,(831) 424-5743,teamsters@local890.org,https://www.teamsterslocal890.org,Crescencio Diaz,President,"Building Material and Construction Trade Division, Food Processing Division, Freight Division, Industrial Trades Division, Package Division, Passenger Transportation, Public Services and Health Care Division, Solid Waste and Recycling Division, Tankhaul Division, Warehouse Division","207 No. Sanborn Road Salinas CA , 93905",36.682888,-121.612105,2026-02-03T08:59:28.294207
891,Teamsters LU No 891,Pearl,MS,39208,(601) 372-8322,tluno891@aol.com,https://www.teamsters891.org,James L. Pinkard,President,"Brewery, Bakery, & Soft Drink, Building Material and Construction Trade Division, Convention, Trade Show & Casino Division, Food Processing Division, Freight Division, Industrial Trades Division, Package Division, Passenger Transportation, Tankhaul Division","2648 Old Brandon Rd Pearl MS , 39208",32.278981,-90.124234,2026-02-03T08:59:28.294210
896,Teamsters LU No 896,Pasadena,CA,91103,(213) 388-3144,,https://www.teamsterslocal896.org,Phil Cooper,Secretary-Treasurer,"Brewery, Bakery, & Soft Drink","2050 Lincoln Avenue Pasadena CA , 91103",34.180996,-118.159305,2026-02-03T08:59:28.294212
901,Teamsters LU No 901,San Juan,PR,00912,(787) 721-8980,union.pr@tronquista901.com,,Argenis C. Ramos,Secretary-Treasurer,"Brewery, Bakery, & Soft Drink, Building Material and Construction Trade Division, Convention, Trade Show & Casino Division, Food Processing Division, Freight Division, Industrial Trades Division, Package Division, Passenger Transportation, Public Services and Health Care Division, Tankhaul Division, Warehouse Division","352 Del Parque St San Juan PR , 00912",18.444187,-66.059859,2026-02-03T08:59:28.294215
908,Teamsters LU No 908,Lima,OH,45802,(419) 229-5080,mail@teamsters908.org,,Thomas Croft,President,"Brewery, Bakery, & Soft Drink, Building Material and Construction Trade Division, Freight Division, Industrial Trades Division, Package Division, Public Services and Health Care Division, Solid Waste and Recycling Division, Tankhaul Division, Warehouse Division","Box 1806,800 St Johns Lima OH , 45802",40.781785,-84.138566,2026-02-03T08:59:28.294217
916,Teamsters LU No 916,Springfield,IL,62707,(217) 522-7932,jp@teamsters916.org,https://www.teamsters916.org,"JP Fyans, III",President,"Brewery, Bakery, & Soft Drink, Building Material and Construction Trade Division, Food Processing Division, Freight Division, Industrial Trades Division, Package Division, Public Services and Health Care Division, Tankhaul Division, Warehouse Division","3361 Teamster Way Springfield IL , 62707",39.854932,-89.650389,2026-02-03T08:59:28.294219
917,Teamsters LU No 917,Floral Park,NY,11001,(516) 358-9620,local917ibt@aol.com,https://www.teamsterslocal917.org,Ralph Natale,President,"Brewery, Bakery, & Soft Drink, Building Material and Construction Trade Division, Food Processing Division, Industrial Trades Division, Passenger Transportation, Public Services and Health Care Division, Tankhaul Division, Warehouse Division","24 N.Tyson Ave,2nd Fl Floral Park NY , 11001",40.729289,-73.705637,2026-02-03T08:59:28.294221
919,Teamsters LU No 919,Houston,TX,77060,(281) 447-1180,,,Michael Silva,Secretary-Treasurer,"Brewery, Bakery, & Soft Drink","151 Northpoint Dr Houston TX , 77060",29.938482,-95.405119,2026-02-03T08:59:28.294223
922,Teamsters LU No 922,Lanham,MD,20706,(202) 526-9250,,,Timothy T. Brown,President,"Industrial Trades Division, Passenger Transportation, Public Services and Health Care Division, Tankhaul Division, Warehouse Division","7501 Forbes Boulevard Room 206 Lanham MD , 20706",38.993,-76.826642,2026-02-03T08:59:28.294226
926,Teamsters LU No 926,Pittsburgh,PA,15205,(412) 922-7483,marc@teamsters926.org,https://www.local926teamsters.org,"Paul ""Dino"" Taormina",Secretary-Treasurer,"Airline Division, Brewery, Bakery, & Soft Drink, Convention, Trade Show & Casino Division, Freight Division, Industrial Trades Division, Package Division, Passenger Transportation, Public Services and Health Care Division, Tankhaul Division, Warehouse Division","4240 Steubenville Pike Pittsburgh PA , 15205",40.439856,-80.089865,2026-02-03T08:59:28.294228
927,Teamsters LU No 927,"Dartmouth, N.Scotia",CN,B3B 1P7,(902) 445-5301,admin@teamsters927.org,https://www.teamsters927.com,Andrew Clark,President,"Building Material and Construction Trade Division, Convention, Trade Show & Casino Division, Freight Division, Package Division, Public Services and Health Care Division, Solid Waste and Recycling Division, Warehouse Division","900 Windmill Road, Suite105 Dartmouth, N.Scotia CN , B3B 1P7",44.704234,-63.612572,2026-02-03T08:59:28.294230
929,Teamsters LU No 929,Philadelphia,PA,19124,(215) 288-1430,rocky.bryan@teamsterslocal929.org,https://www.teamsterslocal929.org,"Rocky Bryan, Jr.",President,"Brewery, Bakery, & Soft Drink, Building Material and Construction Trade Division, Convention, Trade Show & Casino Division, Food Processing Division, Freight Division, Public Services and Health Care Division, Solid Waste and Recycling Division, Warehouse Division","4345 Frankford Avenue Philadelphia PA , 19124",40.011768,-75.087386,2026-02-03T08:59:28.294232
931,Teamsters LU No 931,Montreal  Que,CN,H1B5X1,(514) 645-2500,message@teamsters931.org,,Pierre-Andre Blanchard,President,"Brewery, Bakery, & Soft Drink, Building Material and Construction Trade Division, Freight Division, Industrial Trades Division, Package Division, Public Services and Health Care Division, Warehouse Division","12100 Urgel Charbonneau,200 Montreal  Que CN , H1B5X1",45.647051,-73.522695,2026-02-03T08:59:28.294234
938,Teamsters LU No 938,Mississauga Ont,CN,L4Z 1X8,(905) 502-0062,info@teamsters938.org,https://www.teamsters938.org,Craig McInnes,President,"Brewery, Bakery, & Soft Drink, Convention, Trade Show & Casino Division, Freight Division, Industrial Trades Division, Package Division, Passenger Transportation, Public Services and Health Care Division, Solid Waste and Recycling Division, Tankhaul Division, Warehouse Division","275 Matheson Blvd. E Mississauga Ont CN , L4Z 1X8",43.622526,-79.660984,2026-02-03T08:59:28.294239
947,Teamsters LU No 947,Jacksonville,FL,32218,(904) 764-7756,Donnyconnell947@comcast.net,,Donny Connell,Secretary-Treasurer,,"10947 North Main St. Jacksonville FL , 32218",30.434446,-81.642727,2026-02-03T08:59:28.294241
948,Teamsters LU No 948,Visalia,CA,93277,(559) 625-1061,,,Tim Parolini,Secretary-Treasurer,"Brewery, Bakery, & Soft Drink, Building Material and Construction Trade Division, Food Processing Division, Freight Division, Industrial Trades Division, Package Division","2354 W. Whitendale Avenue Visalia CA , 93277",36.307347,-119.316587,2026-02-03T08:59:28.294243
952,Teamsters LU No 952,Orange,CA,92868,(714) 740-6200,office@teamsters952.org,https://www.teamsters952.org,Eric Jimenez,Secretary-Treasurer,"Brewery, Bakery, & Soft Drink, Building Material and Construction Trade Division, Convention, Trade Show & Casino Division, Food Processing Division, Freight Division, Industrial Trades Division, Package Division, Passenger Transportation, Public Services and Health Care Division, Solid Waste and Recycling Division, Tankhaul Division, Warehouse Division","140 South Marks Way Orange CA , 92868",33.787126,-117.873575,2026-02-03T08:59:28.294246
955,Teamsters LU No 955,Kansas City,MO,64153,(816) 923-3500,,,Jerry D. Wood,President,"Brewery, Bakery, & Soft Drink, Building Material and Construction Trade Division, Food Processing Division, Freight Division, Industrial Trades Division, Passenger Transportation, Public Services and Health Care Division, Warehouse Division","10525 N. Ambassador Drive Suite 102 Kansas City MO , 64153",39.043016,-94.52465,2026-02-03T08:59:28.294248
957,Teamsters LU No 957,Dayton,OH,45413,(937) 278-5781,,https://www.teamsterslocal957.com,Kenneth Howard,President,"Brewery, Bakery, & Soft Drink, Building Material and Construction Trade Division, Convention, Trade Show & Casino Division, Food Processing Division, Freight Division, Industrial Trades Division, Package Division, Passenger Transportation, Public Services and Health Care Division, Solid Waste and Recycling Division, Warehouse Division","Post Office Box 13357 Dayton OH , 45413",39.739693,-84.062366,2026-02-03T08:59:28.294250
959,Teamsters LU No 959,Anchorage,AK,99503,(907) 751-8542,jkriner@akteamsters.com,https://www.akteamsters.com,"Gary Dixon, Jr.",Secretary-Treasurer,"Brewery, Bakery, & Soft Drink, Building Material and Construction Trade Division, Convention, Trade Show & Casino Division, Freight Division, Industrial Trades Division, Package Division, Passenger Transportation, Public Services and Health Care Division, Solid Waste and Recycling Division, Tankhaul Division, Warehouse Division","520 E 34th Ave, #102 Anchorage AK , 99503",61.189368,-149.875629,2026-02-03T08:59:28.294254
962,Teamsters LU No 962,Central Point,OR,97502,(541) 664-4261,teamsters962@aol.com,https://www.teamsters962.org/,,,"Building Material and Construction Trade Division, Freight Division, Package Division, Passenger Transportation, Public Services and Health Care Division, Solid Waste and Recycling Division, Warehouse Division","4480 Rogue Valley,#10 Central Point OR , 97502",42.416384,-122.917383,2026-02-03T08:59:28.294257
964,Teamsters LU No 964,Valley View,OH,44125-4259,(440) 243-8715,office@teamsterslocal964.org,,Michael Moats,Secretary-Treasurer,"Airline Division, Building Material and Construction Trade Division, Food Processing Division, Freight Division, Industrial Trades Division, Package Division, Solid Waste and Recycling Division, Warehouse Division","6051 Carey Drive Valley View OH , 44125-4259",41.397998,-81.612539,2026-02-03T08:59:28.294259
970,Teamsters LU No 970,Minneapolis,MN,55414,(612) 331-6633,,,Nathanial Cochrane,Secretary-Treasurer,"Building Material and Construction Trade Division, Industrial Trades Division, Public Services and Health Care Division, Warehouse Division","3001 Univ Ave S E Minneapolis MN , 55414",44.979513,-93.227354,2026-02-03T08:59:28.294263
974,Teamsters LU No 974,Minneapolis,MN,55414,(612) 331-2200,,,Paul McCullen,Secretary-Treasurer,Industrial Trades Division,"3001 Univ Ave S E Minneapolis MN , 55414",44.979513,-93.227354,2026-02-03T08:59:28.294265
979,Teamsters LU No 979,Winnipeg Man,CN,R3H 1A8,(204) 694-9798,local979@myumts.net,,Robert Mryglod,Secretary-Treasurer,"Airline Division, Building Material and Construction Trade Division, Convention, Trade Show & Casino Division, Food Processing Division, Freight Division, Industrial Trades Division, Package Division, Public Services and Health Care Division, Solid Waste and Recycling Division, Tankhaul Division, Warehouse Division","B1-1680 Dublin Avenue Winnipeg Man CN , R3H 1A8",49.9033,-97.2074,2026-02-03T08:59:28.294267
983,Teamsters LU No 983,Pocatello,ID,83204,(208) 232-6891,teamsterslocal983@yahoo.com,,LaWanda Ellsworth,Secretary-Treasurer,"Brewery, Bakery, & Soft Drink, Building Material and Construction Trade Division, Food Processing Division, Freight Division, Package Division, Public Services and Health Care Division","456 N. Arthur Avenue Pocatello ID , 83204",42.864252,-112.454495,2026-02-03T08:59:28.294269
986,Teamsters LU No 986,Covina,CA,91724,(626) 350-9860,info@teamsters986.org,,Raymond B. Whitmer,Secretary-Treasurer,"Airline Division, Brewery, Bakery, & Soft Drink, Building Material and Construction Trade Division, Convention, Trade Show & Casino Division, Express Division, Food Processing Division, Freight Division, Industrial Trades Division, Package Division, Passenger Transportation, Public Services and Health Care Division, Solid Waste and Recycling Division, Tankhaul Division, Warehouse Division","1430 E. Holt Avenue Covina CA , 91724",34.071109,-117.860511,2026-02-03T08:59:28.294272
987,Teamsters LU No 987,Calgary Alb,CN,T2H 1Z7,(403) 252-7843,jimharyett@teamsters987.com,https://www.teamsters987.com,Jim Haryett,Secretary-Treasurer,"Brewery, Bakery, & Soft Drink, Food Processing Division, Freight Division, Public Services and Health Care Division, Tankhaul Division, Warehouse Division","5663 Burleigh Cres SE Calgary Alb CN , T2H 1Z7",51.00291,-114.043521,2026-02-03T08:59:28.294274
988,Teamsters LU No 988,Houston,TX,77032,(281) 560-2000,contact@teamster988.org,https://www.teamster988.org,Robert Mele,President,"Brewery, Bakery, & Soft Drink, Building Material and Construction Trade Division, Convention, Trade Show & Casino Division, Food Processing Division, Freight Division, Industrial Trades Division, Package Division, Passenger Transportation, Public Services and Health Care Division, Solid Waste and Recycling Division, Tankhaul Division, Warehouse Division","4303 N.Sam Houston E. Houston TX , 77032",29.939859,-95.324014,2026-02-03T08:59:28.294276
991,Teamsters LU No 991,Mobile,AL,36602,(251) 433-1521,,,Ormand Lindsey,Secretary-Treasurer,"Brewery, Bakery, & Soft Drink, Building Material and Construction Trade Division, Food Processing Division, Freight Division, Industrial Trades Division, Package Division, Passenger Transportation, Solid Waste and Recycling Division, Tankhaul Division","112 South Broad St. Mobile AL , 36602",30.685195,-88.05355,2026-02-03T08:59:28.294278
996,Teamsters LU No 996,Honolulu,HI,96819-3205,(808) 847-6633,local996@hawaiiteamsters.com,https://www.hawaiiteamsters.com,Kevin K. Holu,President,"Brewery, Bakery, & Soft Drink, Building Material and Construction Trade Division, Convention, Trade Show & Casino Division, Food Processing Division, Freight Division, Industrial Trades Division, Motion Picture and Theratical Trade Division, Package Division, Passenger Transportation, Public Services and Health Care Division, Tankhaul Division, Warehouse Division","1817 Hart Street Honolulu HI , 96819-3205",21.325894,-157.882747,2026-02-03T08:59:28.294280
1035,Teamsters LU No 1035,South Windsor,CT,06074,(860) 528-4455,,,Robert Ziobrowski,Secretary-Treasurer,,"400 Chapel Road, 2-B South Windsor CT , 06074",41.810688,-72.604704,2026-02-03T08:59:28.294284
1038,Teamsters LU No 1038,Detroit,MI,48216,(313) 964-0720,teamsters1038@aol.com,,Greg Nowak,President,"Brewery, Bakery, & Soft Drink, Building Material and Construction Trade Division, Convention, Trade Show & Casino Division, Food Processing Division, Industrial Trades Division, Passenger Transportation, Public Services and Health Care Division","2741 Trumbull Avenue Detroit MI , 48216",42.336512,-83.070856,2026-02-03T08:59:28.294286
1070,Teamsters LU No 1070,Lafayette,IN,47905,(765) 586-8922,,,John Gogerty,President,Food Processing Division,"7602 Peshewa Drive Lafayette IN , 47905",40.361858,-86.759803,2026-02-03T08:59:28.294288
1129,Teamsters LU No 1129,White,GA,30184,(770) 382-1129,ibtlocal1129@yahoo.com,https://www.local1129.com,Mitchell Vann,Secretary-Treasurer,"Brewery, Bakery, & Soft Drink","P O Box 88 White GA , 30184",34.272808,-84.782808,2026-02-03T08:59:28.294290
1149,Teamsters LU No 1149,Baldwinsville,NY,13027,(315) 638-1137,admin@teamsterslocal1149.org,,Joseph Farrance,Secretary-Treasurer,,"136 E. Genesee Street Unit 2 Baldwinsville NY , 13027",43.158531,-76.360147,2026-02-03T08:59:28.294292
1150,Teamsters LU No 1150,Stratford,CT,06615-7101,(203) 381-9240,,https://www.teamsters1150.org,Rocco J. Calo,Secretary-Treasurer,Industrial Trades Division,"150 Garfield Avenue Stratford CT , 06615-7101",41.171664,-73.147532,2026-02-03T08:59:28.294294
1199,Teamsters LU No 1199,Cincinnati,OH,45212,(513) 721-4116,local1199@gmail.com,,Randy W. Verst,President,"Brewery, Bakery, & Soft Drink, Building Material and Construction Trade Division, Convention, Trade Show & Casino Division, Warehouse Division","2110 Dale Road Cincinnati OH , 45212",39.176886,-84.454644,2026-02-03T08:59:28.294296
1205,Teamsters LU No 1205,Farmingdale,NY,11735,(516) 501-1205,shari@teamsterslocal1205.org,https://www.teamsterslocal1205.org,Nelson Nunez,President,"Building Material and Construction Trade Division, Industrial Trades Division, Passenger Transportation, Public Services and Health Care Division, Warehouse Division","246 Conklin Street Farmingdale NY , 11735",40.732116,-73.449242,2026-02-03T08:59:28.294298
1224,Teamsters LU No 1224,Wilmington,OH,45177,(937) 382-0201,,https://www.apa1224.org,Joseph Muckle,President,Airline Division,"2754 Old State Rte 73 Wilmington OH , 45177",39.429754,-83.786911,2026-02-03T08:59:28.294300
1699,Teamsters LU No 1699,La Mesa,CA,91942,(619) 697-5099,executivedirectorunoch@hotmail.com,,,,Public Services and Health Care Division,"7700 University Avenue La Mesa CA , 91942",32.763306,-117.018328,2026-02-03T08:59:28.294302
1932,Teamsters LU No 1932,San Bernardino,CA,92402,(909) 889-8377,,https://www.teamsters1932.org/,,,,Post Office Box 432,34.21392,-117.127166,2026-02-03T08:59:28.294307
1979,Teamsters LU No 1979,Pickering Ont,CN,L1W 3V4,(905) 426-1212,info1979@teamstersw-canada.org,,Steve Rodriguez,Secretary-Treasurer,,"1885 Clements Rd, #263 Pickering Ont CN , L1W 3V4",43.826314,-79.055863,2026-02-03T08:59:28.294309
1999,Teamsters LU No 1999,Montreal Que,CN,H1J 1T4,(514) 355-1110,info@teamsters1999.com,https://www.teamstersquebec1999.com,Jean-Francois Pelletier,President,"Airline Division, Brewery, Bakery, & Soft Drink, Building Material and Construction Trade Division, Convention, Trade Show & Casino Division, Food Processing Division, Freight Division, Industrial Trades Division, Package Division, Passenger Transportation, Public Services and Health Care Division, Solid Waste and Recycling Division, Tankhaul Division, Warehouse Division","100-9393 Edison,Rm100 Montreal Que CN , H1J 1T4",45.613807,-73.570757,2026-02-03T08:59:28.294312
2010,Teamsters LU No 2010,Oakland,CA,94621,(510) 845-2221,,https://www.teamsters2010.org,Jason Rabinowitz,Secretary-Treasurer,Public Services and Health Care Division,"7730 Pardee Ln, #2010 Oakland CA , 94621",37.74217,-122.205276,2026-02-03T08:59:28.294314
2118,Teamsters LU No 2118,Las Vegas,NV,89103,(702) 268-7591,,,"Greg Unterseher, Trustee",President,Airline Division,"10000 W. Charleston Blvd Suite 220 Las Vegas NV , 89103",36.112293,-115.20711,2026-02-03T08:59:28.294316
2727,Teamsters LU No 2727,Shepherdsville,KY,40165,(502) 239-0990,information@local2727.org,,Brian K. Hunley,President,Airline Division,"4810 N. Preston Highway Shepherdsville KY , 40165",38.134131,-85.611455,2026-02-03T08:59:28.294318
2750,Teamsters LU No 2750,Cincinnati,OH,45202,(717) 727-2750,,,Yngve Paulsen,President,Airline Division,"35 E 7th Street, Suite 202 Cincinnati OH , 45202",39.103753,-84.512529,2026-02-03T08:59:28.294320
2785,Teamsters LU No 2785,Daly City,CA,94015,(415) 467-0450,,,Joseph Cilia,Secretary-Treasurer,"Brewery, Bakery, & Soft Drink, Building Material and Construction Trade Division, Convention, Trade Show & Casino Division, Express Division, Food Processing Division, Freight Division, Industrial Trades Division, Motion Picture and Theratical Trade Division, Package Division, Public Services and Health Care Division, Solid Waste and Recycling Division, Warehouse Division","1440 Southgate Ave., Ste. 1 Daly City CA , 94015",37.675315,-122.478047,2026-02-03T08:59:28.294322
